{"type": "FeatureCollection", "features": [{"type": "Feature", "properties": {"class_id": 3, "class_name": "Water"}, "geometry": {"type": "Polygon", "coordinates": [[[0.0, 0.0], [0.0, 205.0], [3.0, 205.0], [3.0, 206.0], [7.0, 206.0], [7.0, 205.0], [9.0, 205.0], [9.0, 204.0], [10.0, 204.0], [10.0, 203.0], [12.0, 203.0], [12.0, 202.0], [13.0, 202.0], [13.0, 200.0], [14.0, 200.0], [14.0, 199.0], [15.0, 199.0], [15.0, 197.0], [16.0, 197.0], [16.0, 196.0], [17.0, 196.0], [17.0, 195.0], [18.0, 195.0], [18.0, 194.0], [19.0, 194.0], [19.0, 192.0], [20.0, 192.0], [20.0, 190.0], [21.0, 190.0], [21.0, 189.0], [22.0, 189.0], [22.0, 188.0], [23.0, 188.0], [23.0, 186.0], [24.0, 186.0], [24.0, 184.0], [25.0, 184.0], [25.0, 182.0], [26.0, 182.0], [26.0, 181.0], [27.0, 181.0], [27.0, 180.0], [29.0, 180.0], [29.0, 179.0], [30.0, 179.0], [30.0, 178.0], [32.0, 178.0], [32.0, 177.0], [33.0, 177.0], [33.0, 176.0], [35.0, 176.0], [35.0, 175.0], [37.0, 175.0], [37.0, 174.0], [39.0, 174.0], [39.0, 173.0], [40.0, 173.0], [40.0, 172.0], [42.0, 172.0], [42.0, 171.0], [45.0, 171.0], [45.0, 170.0], [47.0, 170.0], [47.0, 169.0], [48.0, 169.0], [48.0, 168.0], [50.0, 168.0], [50.0, 167.0], [51.0, 167.0], [51.0, 166.0], [52.0, 166.0], [52.0, 165.0], [53.0, 165.0], [53.0, 164.0], [54.0, 164.0], [54.0, 163.0], [55.0, 163.0], [55.0, 162.0], [56.0, 162.0], [56.0, 161.0], [57.0, 161.0], [57.0, 159.0], [58.0, 159.0], [58.0, 157.0], [59.0, 157.0], [59.0, 155.0], [60.0, 155.0], [60.0, 154.0], [61.0, 154.0], [61.0, 152.0], [62.0, 152.0], [62.0, 150.0], [63.0, 150.0], [63.0, 149.0], [64.0, 149.0], [64.0, 148.0], [65.0, 148.0], [65.0, 147.0], [66.0, 147.0], [66.0, 146.0], [67.0, 146.0], [67.0, 145.0], [69.0, 145.0], [69.0, 144.0], [71.0, 144.0], [71.0, 143.0], [72.0, 143.0], [72.0, 142.0], [74.0, 142.0], [74.0, 141.0], [75.0, 141.0], [75.0, 140.0], [77.0, 140.0], [77.0, 139.0], [78.0, 139.0], [78.0, 138.0], [79.0, 138.0], [79.0, 137.0], [80.0, 137.0], [80.0, 136.0], [81.0, 136.0], [81.0, 135.0], [83.0, 135.0], [83.0, 134.0], [84.0, 134.0], [84.0, 133.0], [85.0, 133.0], [85.0, 132.0], [86.0, 132.0], [86.0, 131.0], [88.0, 131.0], [88.0, 130.0], [89.0, 130.0], [89.0, 129.0], [90.0, 129.0], [90.0, 128.0], [91.0, 128.0], [91.0, 127.0], [92.0, 127.0], [92.0, 126.0], [94.0, 126.0], [94.0, 125.0], [95.0, 125.0], [95.0, 124.0], [96.0, 124.0], [96.0, 123.0], [97.0, 123.0], [97.0, 122.0], [98.0, 122.0], [98.0, 121.0], [99.0, 121.0], [99.0, 120.0], [100.0, 120.0], [100.0, 119.0], [101.0, 119.0], [101.0, 118.0], [103.0, 118.0], [103.0, 117.0], [104.0, 117.0], [104.0, 116.0], [105.0, 116.0], [105.0, 115.0], [106.0, 115.0], [106.0, 114.0], [107.0, 114.0], [107.0, 112.0], [108.0, 112.0], [108.0, 110.0], [109.0, 110.0], [109.0, 108.0], [110.0, 108.0], [110.0, 107.0], [111.0, 107.0], [111.0, 105.0], [112.0, 105.0], [112.0, 104.0], [113.0, 104.0], [113.0, 103.0], [114.0, 103.0], [114.0, 102.0], [115.0, 102.0], [115.0, 101.0], [116.0, 101.0], [116.0, 100.0], [117.0, 100.0], [117.0, 99.0], [118.0, 99.0], [118.0, 98.0], [119.0, 98.0], [119.0, 97.0], [120.0, 97.0], [120.0, 96.0], [121.0, 96.0], [121.0, 95.0], [122.0, 95.0], [122.0, 94.0], [123.0, 94.0], [123.0, 93.0], [124.0, 93.0], [124.0, 92.0], [125.0, 92.0], [125.0, 91.0], [127.0, 91.0], [127.0, 89.0], [129.0, 89.0], [129.0, 88.0], [130.0, 88.0], [130.0, 87.0], [131.0, 87.0], [131.0, 86.0], [132.0, 86.0], [132.0, 85.0], [133.0, 85.0], [133.0, 84.0], [134.0, 84.0], [134.0, 83.0], [135.0, 83.0], [135.0, 82.0], [136.0, 82.0], [136.0, 81.0], [137.0, 81.0], [137.0, 80.0], [138.0, 80.0], [138.0, 79.0], [139.0, 79.0], [139.0, 78.0], [140.0, 78.0], [140.0, 77.0], [141.0, 77.0], [141.0, 76.0], [142.0, 76.0], [142.0, 75.0], [143.0, 75.0], [143.0, 74.0], [144.0, 74.0], [144.0, 73.0], [145.0, 73.0], [145.0, 72.0], [146.0, 72.0], [146.0, 71.0], [147.0, 71.0], [147.0, 70.0], [149.0, 70.0], [149.0, 69.0], [150.0, 69.0], [150.0, 68.0], [151.0, 68.0], [151.0, 67.0], [152.0, 67.0], [152.0, 66.0], [153.0, 66.0], [153.0, 64.0], [154.0, 64.0], [154.0, 63.0], [155.0, 63.0], [155.0, 62.0], [156.0, 62.0], [156.0, 61.0], [157.0, 61.0], [157.0, 60.0], [159.0, 60.0], [159.0, 59.0], [161.0, 59.0], [161.0, 58.0], [163.0, 58.0], [163.0, 57.0], [164.0, 57.0], [164.0, 56.0], [166.0, 56.0], [166.0, 55.0], [167.0, 55.0], [167.0, 53.0], [168.0, 53.0], [168.0, 52.0], [169.0, 52.0], [169.0, 51.0], [170.0, 51.0], [170.0, 49.0], [171.0, 49.0], [171.0, 48.0], [172.0, 48.0], [172.0, 46.0], [173.0, 46.0], [173.0, 44.0], [174.0, 44.0], [174.0, 42.0], [175.0, 42.0], [175.0, 41.0], [176.0, 41.0], [176.0, 40.0], [177.0, 40.0], [177.0, 39.0], [178.0, 39.0], [178.0, 38.0], [179.0, 38.0], [179.0, 37.0], [181.0, 37.0], [181.0, 36.0], [184.0, 36.0], [184.0, 35.0], [188.0, 35.0], [188.0, 34.0], [191.0, 34.0], [191.0, 33.0], [193.0, 33.0], [193.0, 32.0], [194.0, 32.0], [194.0, 31.0], [195.0, 31.0], [195.0, 30.0], [196.0, 30.0], [196.0, 29.0], [197.0, 29.0], [197.0, 27.0], [198.0, 27.0], [198.0, 12.0], [199.0, 12.0], [199.0, 0.0], [0.0, 0.0]]]}}, {"type": "Feature", "properties": {"class_id": 1, "class_name": "Tree"}, "geometry": {"type": "Polygon", "coordinates": [[[199.0, 0.0], [199.0, 12.0], [198.0, 12.0], [198.0, 27.0], [197.0, 27.0], [197.0, 29.0], [196.0, 29.0], [196.0, 30.0], [195.0, 30.0], [195.0, 31.0], [194.0, 31.0], [194.0, 32.0], [193.0, 32.0], [193.0, 33.0], [191.0, 33.0], [191.0, 34.0], [188.0, 34.0], [188.0, 35.0], [184.0, 35.0], [184.0, 36.0], [181.0, 36.0], [181.0, 37.0], [179.0, 37.0], [179.0, 38.0], [178.0, 38.0], [178.0, 39.0], [177.0, 39.0], [177.0, 40.0], [176.0, 40.0], [176.0, 41.0], [175.0, 41.0], [175.0, 42.0], [174.0, 42.0], [174.0, 44.0], [173.0, 44.0], [173.0, 46.0], [172.0, 46.0], [172.0, 48.0], [171.0, 48.0], [171.0, 49.0], [170.0, 49.0], [170.0, 51.0], [169.0, 51.0], [169.0, 52.0], [168.0, 52.0], [168.0, 53.0], [167.0, 53.0], [167.0, 55.0], [166.0, 55.0], [166.0, 56.0], [164.0, 56.0], [164.0, 57.0], [163.0, 57.0], [163.0, 58.0], [161.0, 58.0], [161.0, 59.0], [159.0, 59.0], [159.0, 60.0], [157.0, 60.0], [157.0, 61.0], [156.0, 61.0], [156.0, 62.0], [155.0, 62.0], [155.0, 63.0], [154.0, 63.0], [154.0, 64.0], [153.0, 64.0], [153.0, 66.0], [152.0, 66.0], [152.0, 67.0], [151.0, 67.0], [151.0, 68.0], [150.0, 68.0], [150.0, 69.0], [149.0, 69.0], [149.0, 70.0], [147.0, 70.0], [147.0, 71.0], [146.0, 71.0], [146.0, 72.0], [145.0, 72.0], [145.0, 73.0], [144.0, 73.0], [144.0, 74.0], [143.0, 74.0], [143.0, 75.0], [142.0, 75.0], [142.0, 76.0], [141.0, 76.0], [141.0, 77.0], [140.0, 77.0], [140.0, 78.0], [139.0, 78.0], [139.0, 79.0], [138.0, 79.0], [138.0, 80.0], [137.0, 80.0], [137.0, 81.0], [136.0, 81.0], [136.0, 82.0], [135.0, 82.0], [135.0, 83.0], [134.0, 83.0], [134.0, 84.0], [133.0, 84.0], [133.0, 85.0], [132.0, 85.0], [132.0, 86.0], [131.0, 86.0], [131.0, 87.0], [130.0, 87.0], [130.0, 88.0], [129.0, 88.0], [129.0, 89.0], [127.0, 89.0], [127.0, 91.0], [125.0, 91.0], [125.0, 92.0], [124.0, 92.0], [124.0, 93.0], [123.0, 93.0], [123.0, 94.0], [122.0, 94.0], [122.0, 95.0], [121.0, 95.0], [121.0, 96.0], [120.0, 96.0], [120.0, 97.0], [119.0, 97.0], [119.0, 98.0], [118.0, 98.0], [118.0, 99.0], [117.0, 99.0], [117.0, 100.0], [116.0, 100.0], [116.0, 101.0], [115.0, 101.0], [115.0, 102.0], [114.0, 102.0], [114.0, 103.0], [113.0, 103.0], [113.0, 104.0], [112.0, 104.0], [112.0, 105.0], [111.0, 105.0], [111.0, 107.0], [110.0, 107.0], [110.0, 108.0], [109.0, 108.0], [109.0, 110.0], [108.0, 110.0], [108.0, 112.0], [107.0, 112.0], [107.0, 114.0], [106.0, 114.0], [106.0, 115.0], [105.0, 115.0], [105.0, 116.0], [104.0, 116.0], [104.0, 117.0], [103.0, 117.0], [103.0, 118.0], [101.0, 118.0], [101.0, 119.0], [100.0, 119.0], [100.0, 120.0], [99.0, 120.0], [99.0, 121.0], [98.0, 121.0], [98.0, 122.0], [97.0, 122.0], [97.0, 123.0], [96.0, 123.0], [96.0, 124.0], [95.0, 124.0], [95.0, 125.0], [94.0, 125.0], [94.0, 126.0], [92.0, 126.0], [92.0, 127.0], [91.0, 127.0], [91.0, 128.0], [90.0, 128.0], [90.0, 129.0], [89.0, 129.0], [89.0, 130.0], [88.0, 130.0], [88.0, 131.0], [86.0, 131.0], [86.0, 132.0], [85.0, 132.0], [85.0, 133.0], [84.0, 133.0], [84.0, 134.0], [83.0, 134.0], [83.0, 135.0], [81.0, 135.0], [81.0, 136.0], [80.0, 136.0], [80.0, 137.0], [79.0, 137.0], [79.0, 138.0], [78.0, 138.0], [78.0, 139.0], [77.0, 139.0], [77.0, 140.0], [75.0, 140.0], [75.0, 141.0], [74.0, 141.0], [74.0, 142.0], [72.0, 142.0], [72.0, 143.0], [71.0, 143.0], [71.0, 144.0], [69.0, 144.0], [69.0, 145.0], [67.0, 145.0], [67.0, 146.0], [66.0, 146.0], [66.0, 147.0], [65.0, 147.0], [65.0, 148.0], [64.0, 148.0], [64.0, 149.0], [63.0, 149.0], [63.0, 150.0], [62.0, 150.0], [62.0, 152.0], [61.0, 152.0], [61.0, 154.0], [60.0, 154.0], [60.0, 155.0], [59.0, 155.0], [59.0, 157.0], [58.0, 157.0], [58.0, 159.0], [57.0, 159.0], [57.0, 161.0], [56.0, 161.0], [56.0, 162.0], [55.0, 162.0], [55.0, 163.0], [54.0, 163.0], [54.0, 164.0], [53.0, 164.0], [53.0, 165.0], [52.0, 165.0], [52.0, 166.0], [51.0, 166.0], [51.0, 167.0], [50.0, 167.0], [50.0, 168.0], [48.0, 168.0], [48.0, 169.0], [47.0, 169.0], [47.0, 170.0], [45.0, 170.0], [45.0, 171.0], [42.0, 171.0], [42.0, 172.0], [40.0, 172.0], [40.0, 173.0], [39.0, 173.0], [39.0, 174.0], [37.0, 174.0], [37.0, 175.0], [35.0, 175.0], [35.0, 176.0], [33.0, 176.0], [33.0, 177.0], [32.0, 177.0], [32.0, 178.0], [30.0, 178.0], [30.0, 179.0], [29.0, 179.0], [29.0, 180.0], [27.0, 180.0], [27.0, 181.0], [26.0, 181.0], [26.0, 182.0], [25.0, 182.0], [25.0, 184.0], [24.0, 184.0], [24.0, 186.0], [23.0, 186.0], [23.0, 188.0], [22.0, 188.0], [22.0, 189.0], [21.0, 189.0], [21.0, 190.0], [20.0, 190.0], [20.0, 192.0], [19.0, 192.0], [19.0, 194.0], [18.0, 194.0], [18.0, 195.0], [17.0, 195.0], [17.0, 196.0], [16.0, 196.0], [16.0, 197.0], [15.0, 197.0], [15.0, 199.0], [14.0, 199.0], [14.0, 200.0], [13.0, 200.0], [13.0, 202.0], [12.0, 202.0], [12.0, 203.0], [10.0, 203.0], [10.0, 204.0], [9.0, 204.0], [9.0, 205.0], [7.0, 205.0], [7.0, 206.0], [3.0, 206.0], [3.0, 205.0], [0.0, 205.0], [0.0, 1024.0], [1024.0, 1024.0], [1024.0, 0.0], [199.0, 0.0]]]}}]}