{"type": "FeatureCollection", "features": [{"type": "Feature", "properties": {"class_id": 4, "class_name": "Building"}, "geometry": {"type": "Polygon", "coordinates": [[[137.0, 523.0], [137.0, 524.0], [134.0, 524.0], [134.0, 525.0], [133.0, 525.0], [133.0, 526.0], [132.0, 526.0], [132.0, 527.0], [131.0, 527.0], [131.0, 528.0], [130.0, 528.0], [130.0, 529.0], [129.0, 529.0], [129.0, 536.0], [130.0, 536.0], [130.0, 537.0], [131.0, 537.0], [131.0, 536.0], [134.0, 536.0], [134.0, 535.0], [135.0, 535.0], [135.0, 534.0], [136.0, 534.0], [136.0, 533.0], [137.0, 533.0], [137.0, 531.0], [138.0, 531.0], [138.0, 530.0], [139.0, 530.0], [139.0, 523.0], [137.0, 523.0]]]}}, {"type": "Feature", "properties": {"class_id": 4, "class_name": "Building"}, "geometry": {"type": "Polygon", "coordinates": [[[122.0, 601.0], [122.0, 602.0], [121.0, 602.0], [121.0, 603.0], [120.0, 603.0], [120.0, 604.0], [119.0, 604.0], [119.0, 605.0], [115.0, 605.0], [115.0, 604.0], [114.0, 604.0], [114.0, 605.0], [113.0, 605.0], [113.0, 608.0], [112.0, 608.0], [112.0, 611.0], [113.0, 611.0], [113.0, 613.0], [116.0, 613.0], [116.0, 612.0], [118.0, 612.0], [118.0, 610.0], [119.0, 610.0], [119.0, 608.0], [120.0, 608.0], [120.0, 607.0], [124.0, 607.0], [124.0, 606.0], [126.0, 606.0], [126.0, 604.0], [127.0, 604.0], [127.0, 601.0], [122.0, 601.0]]]}}, {"type": "Feature", "properties": {"class_id": 4, "class_name": "Building"}, "geometry": {"type": "Polygon", "coordinates": [[[129.0, 608.0], [129.0, 609.0], [128.0, 609.0], [128.0, 612.0], [126.0, 612.0], [126.0, 613.0], [125.0, 613.0], [125.0, 616.0], [124.0, 616.0], [124.0, 618.0], [125.0, 618.0], [125.0, 619.0], [127.0, 619.0], [127.0, 618.0], [129.0, 618.0], [129.0, 617.0], [130.0, 617.0], [130.0, 616.0], [131.0, 616.0], [131.0, 613.0], [132.0, 613.0], [132.0, 611.0], [133.0, 611.0], [133.0, 608.0], [129.0, 608.0]]]}}, {"type": "Feature", "properties": {"class_id": 4, "class_name": "Building"}, "geometry": {"type": "Polygon", "coordinates": [[[184.0, 608.0], [184.0, 609.0], [183.0, 609.0], [183.0, 610.0], [182.0, 610.0], [182.0, 611.0], [181.0, 611.0], [181.0, 612.0], [180.0, 612.0], [180.0, 613.0], [179.0, 613.0], [179.0, 615.0], [178.0, 615.0], [178.0, 618.0], [177.0, 618.0], [177.0, 624.0], [179.0, 624.0], [179.0, 622.0], [180.0, 622.0], [180.0, 621.0], [181.0, 621.0], [181.0, 620.0], [182.0, 620.0], [182.0, 619.0], [183.0, 619.0], [183.0, 617.0], [184.0, 617.0], [184.0, 616.0], [185.0, 616.0], [185.0, 615.0], [186.0, 615.0], [186.0, 614.0], [187.0, 614.0], [187.0, 612.0], [188.0, 612.0], [188.0, 611.0], [189.0, 611.0], [189.0, 610.0], [190.0, 610.0], [190.0, 609.0], [189.0, 609.0], [189.0, 608.0], [184.0, 608.0]]]}}, {"type": "Feature", "properties": {"class_id": 4, "class_name": "Building"}, "geometry": {"type": "Polygon", "coordinates": [[[156.0, 557.0], [156.0, 558.0], [153.0, 558.0], [153.0, 559.0], [152.0, 559.0], [152.0, 560.0], [150.0, 560.0], [150.0, 561.0], [148.0, 561.0], [148.0, 562.0], [147.0, 562.0], [147.0, 565.0], [146.0, 565.0], [146.0, 568.0], [147.0, 568.0], [147.0, 571.0], [145.0, 571.0], [145.0, 572.0], [143.0, 572.0], [143.0, 573.0], [142.0, 573.0], [142.0, 574.0], [135.0, 574.0], [135.0, 575.0], [131.0, 575.0], [131.0, 574.0], [129.0, 574.0], [129.0, 573.0], [125.0, 573.0], [125.0, 574.0], [124.0, 574.0], [124.0, 575.0], [122.0, 575.0], [122.0, 576.0], [117.0, 576.0], [117.0, 575.0], [116.0, 575.0], [116.0, 574.0], [112.0, 574.0], [112.0, 575.0], [111.0, 575.0], [111.0, 576.0], [109.0, 576.0], [109.0, 584.0], [111.0, 584.0], [111.0, 583.0], [112.0, 583.0], [112.0, 582.0], [118.0, 582.0], [118.0, 583.0], [120.0, 583.0], [120.0, 584.0], [121.0, 584.0], [121.0, 586.0], [122.0, 586.0], [122.0, 590.0], [124.0, 590.0], [124.0, 589.0], [127.0, 589.0], [127.0, 586.0], [128.0, 586.0], [128.0, 582.0], [129.0, 582.0], [129.0, 580.0], [130.0, 580.0], [130.0, 579.0], [131.0, 579.0], [131.0, 581.0], [132.0, 581.0], [132.0, 588.0], [131.0, 588.0], [131.0, 593.0], [132.0, 593.0], [132.0, 595.0], [131.0, 595.0], [131.0, 599.0], [132.0, 599.0], [132.0, 601.0], [136.0, 601.0], [136.0, 600.0], [137.0, 600.0], [137.0, 599.0], [139.0, 599.0], [139.0, 598.0], [141.0, 598.0], [141.0, 597.0], [143.0, 597.0], [143.0, 596.0], [144.0, 596.0], [144.0, 594.0], [145.0, 594.0], [145.0, 591.0], [146.0, 591.0], [146.0, 590.0], [147.0, 590.0], [147.0, 589.0], [148.0, 589.0], [148.0, 588.0], [149.0, 588.0], [149.0, 586.0], [152.0, 586.0], [152.0, 587.0], [153.0, 587.0], [153.0, 592.0], [152.0, 592.0], [152.0, 601.0], [151.0, 601.0], [151.0, 603.0], [150.0, 603.0], [150.0, 605.0], [149.0, 605.0], [149.0, 606.0], [148.0, 606.0], [148.0, 607.0], [146.0, 607.0], [146.0, 608.0], [143.0, 608.0], [143.0, 609.0], [142.0, 609.0], [142.0, 611.0], [141.0, 611.0], [141.0, 612.0], [140.0, 612.0], [140.0, 614.0], [139.0, 614.0], [139.0, 615.0], [140.0, 615.0], [140.0, 616.0], [141.0, 616.0], [141.0, 617.0], [145.0, 617.0], [145.0, 618.0], [151.0, 618.0], [151.0, 617.0], [152.0, 617.0], [152.0, 616.0], [153.0, 616.0], [153.0, 614.0], [154.0, 614.0], [154.0, 613.0], [155.0, 613.0], [155.0, 611.0], [156.0, 611.0], [156.0, 609.0], [157.0, 609.0], [157.0, 608.0], [159.0, 608.0], [159.0, 607.0], [166.0, 607.0], [166.0, 608.0], [167.0, 608.0], [167.0, 611.0], [166.0, 611.0], [166.0, 612.0], [165.0, 612.0], [165.0, 613.0], [164.0, 613.0], [164.0, 614.0], [163.0, 614.0], [163.0, 616.0], [158.0, 616.0], [158.0, 617.0], [157.0, 617.0], [157.0, 622.0], [156.0, 622.0], [156.0, 624.0], [155.0, 624.0], [155.0, 626.0], [154.0, 626.0], [154.0, 629.0], [153.0, 629.0], [153.0, 630.0], [152.0, 630.0], [152.0, 631.0], [151.0, 631.0], [151.0, 632.0], [150.0, 632.0], [150.0, 633.0], [149.0, 633.0], [149.0, 634.0], [148.0, 634.0], [148.0, 635.0], [146.0, 635.0], [146.0, 636.0], [145.0, 636.0], [145.0, 640.0], [147.0, 640.0], [147.0, 639.0], [148.0, 639.0], [148.0, 636.0], [151.0, 636.0], [151.0, 637.0], [152.0, 637.0], [152.0, 638.0], [153.0, 638.0], [153.0, 643.0], [154.0, 643.0], [154.0, 642.0], [155.0, 642.0], [155.0, 639.0], [156.0, 639.0], [156.0, 638.0], [158.0, 638.0], [158.0, 637.0], [159.0, 637.0], [159.0, 635.0], [160.0, 635.0], [160.0, 629.0], [161.0, 629.0], [161.0, 627.0], [162.0, 627.0], [162.0, 625.0], [163.0, 625.0], [163.0, 624.0], [165.0, 624.0], [165.0, 623.0], [167.0, 623.0], [167.0, 622.0], [168.0, 622.0], [168.0, 621.0], [169.0, 621.0], [169.0, 620.0], [170.0, 620.0], [170.0, 619.0], [172.0, 619.0], [172.0, 618.0], [173.0, 618.0], [173.0, 616.0], [174.0, 616.0], [174.0, 615.0], [176.0, 615.0], [176.0, 614.0], [175.0, 614.0], [175.0, 613.0], [174.0, 613.0], [174.0, 612.0], [173.0, 612.0], [173.0, 611.0], [172.0, 611.0], [172.0, 607.0], [173.0, 607.0], [173.0, 605.0], [174.0, 605.0], [174.0, 603.0], [175.0, 603.0], [175.0, 597.0], [174.0, 597.0], [174.0, 596.0], [173.0, 596.0], [173.0, 597.0], [170.0, 597.0], [170.0, 598.0], [169.0, 598.0], [169.0, 600.0], [168.0, 600.0], [168.0, 602.0], [167.0, 602.0], [167.0, 603.0], [165.0, 603.0], [165.0, 602.0], [164.0, 602.0], [164.0, 601.0], [163.0, 601.0], [163.0, 600.0], [161.0, 600.0], [161.0, 597.0], [163.0, 597.0], [163.0, 596.0], [164.0, 596.0], [164.0, 595.0], [165.0, 595.0], [165.0, 591.0], [166.0, 591.0], [166.0, 586.0], [160.0, 586.0], [160.0, 587.0], [159.0, 587.0], [159.0, 588.0], [157.0, 588.0], [157.0, 587.0], [156.0, 587.0], [156.0, 583.0], [155.0, 583.0], [155.0, 582.0], [153.0, 582.0], [153.0, 581.0], [152.0, 581.0], [152.0, 580.0], [150.0, 580.0], [150.0, 579.0], [149.0, 579.0], [149.0, 578.0], [148.0, 578.0], [148.0, 577.0], [149.0, 577.0], [149.0, 576.0], [150.0, 576.0], [150.0, 575.0], [151.0, 575.0], [151.0, 571.0], [150.0, 571.0], [150.0, 569.0], [151.0, 569.0], [151.0, 567.0], [152.0, 567.0], [152.0, 566.0], [154.0, 566.0], [154.0, 565.0], [155.0, 565.0], [155.0, 564.0], [157.0, 564.0], [157.0, 563.0], [158.0, 563.0], [158.0, 562.0], [159.0, 562.0], [159.0, 558.0], [158.0, 558.0], [158.0, 557.0], [156.0, 557.0]]]}}, {"type": "Feature", "properties": {"class_id": 4, "class_name": "Building"}, "geometry": {"type": "Polygon", "coordinates": [[[182.0, 647.0], [182.0, 649.0], [181.0, 649.0], [181.0, 653.0], [180.0, 653.0], [180.0, 658.0], [179.0, 658.0], [179.0, 659.0], [178.0, 659.0], [178.0, 660.0], [177.0, 660.0], [177.0, 661.0], [176.0, 661.0], [176.0, 663.0], [175.0, 663.0], [175.0, 664.0], [174.0, 664.0], [174.0, 666.0], [173.0, 666.0], [173.0, 671.0], [175.0, 671.0], [175.0, 670.0], [176.0, 670.0], [176.0, 669.0], [178.0, 669.0], [178.0, 668.0], [179.0, 668.0], [179.0, 667.0], [180.0, 667.0], [180.0, 666.0], [182.0, 666.0], [182.0, 665.0], [185.0, 665.0], [185.0, 664.0], [187.0, 664.0], [187.0, 663.0], [188.0, 663.0], [188.0, 662.0], [189.0, 662.0], [189.0, 660.0], [190.0, 660.0], [190.0, 659.0], [191.0, 659.0], [191.0, 656.0], [192.0, 656.0], [192.0, 655.0], [194.0, 655.0], [194.0, 652.0], [195.0, 652.0], [195.0, 650.0], [194.0, 650.0], [194.0, 649.0], [192.0, 649.0], [192.0, 648.0], [190.0, 648.0], [190.0, 649.0], [188.0, 649.0], [188.0, 659.0], [184.0, 659.0], [184.0, 658.0], [183.0, 658.0], [183.0, 654.0], [184.0, 654.0], [184.0, 648.0], [183.0, 648.0], [183.0, 647.0], [182.0, 647.0]]]}}, {"type": "Feature", "properties": {"class_id": 4, "class_name": "Building"}, "geometry": {"type": "Polygon", "coordinates": [[[256.0, 687.0], [256.0, 688.0], [255.0, 688.0], [255.0, 689.0], [254.0, 689.0], [254.0, 690.0], [253.0, 690.0], [253.0, 691.0], [252.0, 691.0], [252.0, 692.0], [251.0, 692.0], [251.0, 693.0], [250.0, 693.0], [250.0, 694.0], [249.0, 694.0], [249.0, 696.0], [248.0, 696.0], [248.0, 699.0], [247.0, 699.0], [247.0, 700.0], [246.0, 700.0], [246.0, 701.0], [245.0, 701.0], [245.0, 703.0], [244.0, 703.0], [244.0, 704.0], [243.0, 704.0], [243.0, 705.0], [242.0, 705.0], [242.0, 706.0], [241.0, 706.0], [241.0, 708.0], [240.0, 708.0], [240.0, 711.0], [241.0, 711.0], [241.0, 712.0], [245.0, 712.0], [245.0, 713.0], [246.0, 713.0], [246.0, 712.0], [248.0, 712.0], [248.0, 711.0], [250.0, 711.0], [250.0, 710.0], [251.0, 710.0], [251.0, 709.0], [253.0, 709.0], [253.0, 708.0], [254.0, 708.0], [254.0, 707.0], [256.0, 707.0], [256.0, 706.0], [257.0, 706.0], [257.0, 705.0], [258.0, 705.0], [258.0, 704.0], [259.0, 704.0], [259.0, 700.0], [258.0, 700.0], [258.0, 699.0], [257.0, 699.0], [257.0, 696.0], [258.0, 696.0], [258.0, 695.0], [259.0, 695.0], [259.0, 693.0], [260.0, 693.0], [260.0, 692.0], [261.0, 692.0], [261.0, 688.0], [260.0, 688.0], [260.0, 687.0], [256.0, 687.0]]]}}, {"type": "Feature", "properties": {"class_id": 7, "class_name": "Bareland"}, "geometry": {"type": "Polygon", "coordinates": [[[77.0, 932.0], [77.0, 933.0], [75.0, 933.0], [75.0, 934.0], [74.0, 934.0], [74.0, 935.0], [72.0, 935.0], [72.0, 936.0], [70.0, 936.0], [70.0, 937.0], [69.0, 937.0], [69.0, 939.0], [68.0, 939.0], [68.0, 940.0], [67.0, 940.0], [67.0, 941.0], [65.0, 941.0], [65.0, 943.0], [64.0, 943.0], [64.0, 946.0], [63.0, 946.0], [63.0, 950.0], [64.0, 950.0], [64.0, 949.0], [65.0, 949.0], [65.0, 948.0], [66.0, 948.0], [66.0, 946.0], [67.0, 946.0], [67.0, 945.0], [68.0, 945.0], [68.0, 944.0], [69.0, 944.0], [69.0, 942.0], [70.0, 942.0], [70.0, 941.0], [71.0, 941.0], [71.0, 940.0], [72.0, 940.0], [72.0, 939.0], [73.0, 939.0], [73.0, 938.0], [74.0, 938.0], [74.0, 937.0], [75.0, 937.0], [75.0, 936.0], [77.0, 936.0], [77.0, 935.0], [78.0, 935.0], [78.0, 934.0], [80.0, 934.0], [80.0, 933.0], [81.0, 933.0], [81.0, 932.0], [77.0, 932.0]]]}}, {"type": "Feature", "properties": {"class_id": 3, "class_name": "Water"}, "geometry": {"type": "Polygon", "coordinates": [[[94.0, 926.0], [94.0, 927.0], [89.0, 927.0], [89.0, 928.0], [86.0, 928.0], [86.0, 929.0], [85.0, 929.0], [85.0, 930.0], [83.0, 930.0], [83.0, 931.0], [82.0, 931.0], [82.0, 932.0], [81.0, 932.0], [81.0, 933.0], [80.0, 933.0], [80.0, 934.0], [78.0, 934.0], [78.0, 935.0], [77.0, 935.0], [77.0, 936.0], [75.0, 936.0], [75.0, 937.0], [74.0, 937.0], [74.0, 938.0], [73.0, 938.0], [73.0, 939.0], [72.0, 939.0], [72.0, 940.0], [71.0, 940.0], [71.0, 941.0], [70.0, 941.0], [70.0, 942.0], [69.0, 942.0], [69.0, 944.0], [68.0, 944.0], [68.0, 945.0], [67.0, 945.0], [67.0, 946.0], [66.0, 946.0], [66.0, 948.0], [65.0, 948.0], [65.0, 949.0], [64.0, 949.0], [64.0, 950.0], [63.0, 950.0], [63.0, 951.0], [62.0, 951.0], [62.0, 952.0], [60.0, 952.0], [60.0, 953.0], [59.0, 953.0], [59.0, 955.0], [58.0, 955.0], [58.0, 956.0], [57.0, 956.0], [57.0, 957.0], [56.0, 957.0], [56.0, 958.0], [55.0, 958.0], [55.0, 959.0], [54.0, 959.0], [54.0, 960.0], [53.0, 960.0], [53.0, 961.0], [52.0, 961.0], [52.0, 962.0], [51.0, 962.0], [51.0, 963.0], [49.0, 963.0], [49.0, 964.0], [48.0, 964.0], [48.0, 965.0], [47.0, 965.0], [47.0, 966.0], [46.0, 966.0], [46.0, 967.0], [45.0, 967.0], [45.0, 968.0], [44.0, 968.0], [44.0, 969.0], [43.0, 969.0], [43.0, 970.0], [42.0, 970.0], [42.0, 971.0], [41.0, 971.0], [41.0, 973.0], [40.0, 973.0], [40.0, 974.0], [39.0, 974.0], [39.0, 975.0], [37.0, 975.0], [37.0, 976.0], [35.0, 976.0], [35.0, 977.0], [33.0, 977.0], [33.0, 978.0], [32.0, 978.0], [32.0, 979.0], [31.0, 979.0], [31.0, 980.0], [30.0, 980.0], [30.0, 981.0], [28.0, 981.0], [28.0, 982.0], [27.0, 982.0], [27.0, 983.0], [26.0, 983.0], [26.0, 984.0], [24.0, 984.0], [24.0, 985.0], [23.0, 985.0], [23.0, 986.0], [22.0, 986.0], [22.0, 987.0], [21.0, 987.0], [21.0, 988.0], [20.0, 988.0], [20.0, 989.0], [19.0, 989.0], [19.0, 990.0], [18.0, 990.0], [18.0, 991.0], [16.0, 991.0], [16.0, 992.0], [15.0, 992.0], [15.0, 993.0], [14.0, 993.0], [14.0, 994.0], [13.0, 994.0], [13.0, 995.0], [12.0, 995.0], [12.0, 997.0], [11.0, 997.0], [11.0, 998.0], [10.0, 998.0], [10.0, 999.0], [8.0, 999.0], [8.0, 1000.0], [7.0, 1000.0], [7.0, 1001.0], [5.0, 1001.0], [5.0, 1002.0], [3.0, 1002.0], [3.0, 1003.0], [0.0, 1003.0], [0.0, 1024.0], [217.0, 1024.0], [217.0, 1022.0], [218.0, 1022.0], [218.0, 1021.0], [219.0, 1021.0], [219.0, 1020.0], [220.0, 1020.0], [220.0, 1019.0], [221.0, 1019.0], [221.0, 1015.0], [222.0, 1015.0], [222.0, 1010.0], [221.0, 1010.0], [221.0, 1008.0], [220.0, 1008.0], [220.0, 1007.0], [219.0, 1007.0], [219.0, 1006.0], [218.0, 1006.0], [218.0, 1005.0], [215.0, 1005.0], [215.0, 1004.0], [213.0, 1004.0], [213.0, 1003.0], [211.0, 1003.0], [211.0, 1002.0], [210.0, 1002.0], [210.0, 1001.0], [208.0, 1001.0], [208.0, 1000.0], [207.0, 1000.0], [207.0, 999.0], [206.0, 999.0], [206.0, 997.0], [205.0, 997.0], [205.0, 994.0], [204.0, 994.0], [204.0, 993.0], [203.0, 993.0], [203.0, 992.0], [201.0, 992.0], [201.0, 991.0], [198.0, 991.0], [198.0, 990.0], [195.0, 990.0], [195.0, 989.0], [194.0, 989.0], [194.0, 988.0], [192.0, 988.0], [192.0, 987.0], [191.0, 987.0], [191.0, 986.0], [190.0, 986.0], [190.0, 985.0], [189.0, 985.0], [189.0, 984.0], [188.0, 984.0], [188.0, 983.0], [187.0, 983.0], [187.0, 982.0], [186.0, 982.0], [186.0, 981.0], [185.0, 981.0], [185.0, 980.0], [183.0, 980.0], [183.0, 979.0], [182.0, 979.0], [182.0, 978.0], [180.0, 978.0], [180.0, 977.0], [179.0, 977.0], [179.0, 976.0], [177.0, 976.0], [177.0, 975.0], [176.0, 975.0], [176.0, 974.0], [174.0, 974.0], [174.0, 973.0], [173.0, 973.0], [173.0, 972.0], [172.0, 972.0], [172.0, 971.0], [170.0, 971.0], [170.0, 970.0], [169.0, 970.0], [169.0, 969.0], [167.0, 969.0], [167.0, 968.0], [166.0, 968.0], [166.0, 967.0], [164.0, 967.0], [164.0, 966.0], [163.0, 966.0], [163.0, 965.0], [162.0, 965.0], [162.0, 964.0], [160.0, 964.0], [160.0, 963.0], [159.0, 963.0], [159.0, 962.0], [157.0, 962.0], [157.0, 961.0], [155.0, 961.0], [155.0, 960.0], [154.0, 960.0], [154.0, 959.0], [152.0, 959.0], [152.0, 958.0], [151.0, 958.0], [151.0, 957.0], [150.0, 957.0], [150.0, 956.0], [149.0, 956.0], [149.0, 955.0], [148.0, 955.0], [148.0, 954.0], [147.0, 954.0], [147.0, 953.0], [146.0, 953.0], [146.0, 951.0], [144.0, 951.0], [144.0, 950.0], [143.0, 950.0], [143.0, 949.0], [142.0, 949.0], [142.0, 948.0], [141.0, 948.0], [141.0, 947.0], [140.0, 947.0], [140.0, 946.0], [138.0, 946.0], [138.0, 945.0], [137.0, 945.0], [137.0, 944.0], [136.0, 944.0], [136.0, 943.0], [135.0, 943.0], [135.0, 942.0], [134.0, 942.0], [134.0, 941.0], [132.0, 941.0], [132.0, 940.0], [129.0, 940.0], [129.0, 939.0], [125.0, 939.0], [125.0, 938.0], [123.0, 938.0], [123.0, 937.0], [121.0, 937.0], [121.0, 936.0], [119.0, 936.0], [119.0, 935.0], [117.0, 935.0], [117.0, 934.0], [116.0, 934.0], [116.0, 933.0], [114.0, 933.0], [114.0, 932.0], [113.0, 932.0], [113.0, 931.0], [111.0, 931.0], [111.0, 930.0], [109.0, 930.0], [109.0, 929.0], [108.0, 929.0], [108.0, 928.0], [106.0, 928.0], [106.0, 927.0], [103.0, 927.0], [103.0, 926.0], [94.0, 926.0]]]}}, {"type": "Feature", "properties": {"class_id": 1, "class_name": "Tree"}, "geometry": {"type": "Polygon", "coordinates": [[[0.0, 0.0], [0.0, 1003.0], [3.0, 1003.0], [3.0, 1002.0], [5.0, 1002.0], [5.0, 1001.0], [7.0, 1001.0], [7.0, 1000.0], [8.0, 1000.0], [8.0, 999.0], [10.0, 999.0], [10.0, 998.0], [11.0, 998.0], [11.0, 997.0], [12.0, 997.0], [12.0, 995.0], [13.0, 995.0], [13.0, 994.0], [14.0, 994.0], [14.0, 993.0], [15.0, 993.0], [15.0, 992.0], [16.0, 992.0], [16.0, 991.0], [18.0, 991.0], [18.0, 990.0], [19.0, 990.0], [19.0, 989.0], [20.0, 989.0], [20.0, 988.0], [21.0, 988.0], [21.0, 987.0], [22.0, 987.0], [22.0, 986.0], [23.0, 986.0], [23.0, 985.0], [24.0, 985.0], [24.0, 984.0], [26.0, 984.0], [26.0, 983.0], [27.0, 983.0], [27.0, 982.0], [28.0, 982.0], [28.0, 981.0], [30.0, 981.0], [30.0, 980.0], [31.0, 980.0], [31.0, 979.0], [32.0, 979.0], [32.0, 978.0], [33.0, 978.0], [33.0, 977.0], [35.0, 977.0], [35.0, 976.0], [37.0, 976.0], [37.0, 975.0], [39.0, 975.0], [39.0, 974.0], [40.0, 974.0], [40.0, 973.0], [41.0, 973.0], [41.0, 971.0], [42.0, 971.0], [42.0, 970.0], [43.0, 970.0], [43.0, 969.0], [44.0, 969.0], [44.0, 968.0], [45.0, 968.0], [45.0, 967.0], [46.0, 967.0], [46.0, 966.0], [47.0, 966.0], [47.0, 965.0], [48.0, 965.0], [48.0, 964.0], [49.0, 964.0], [49.0, 963.0], [51.0, 963.0], [51.0, 962.0], [52.0, 962.0], [52.0, 961.0], [53.0, 961.0], [53.0, 960.0], [54.0, 960.0], [54.0, 959.0], [55.0, 959.0], [55.0, 958.0], [56.0, 958.0], [56.0, 957.0], [57.0, 957.0], [57.0, 956.0], [58.0, 956.0], [58.0, 955.0], [59.0, 955.0], [59.0, 953.0], [60.0, 953.0], [60.0, 952.0], [62.0, 952.0], [62.0, 951.0], [63.0, 951.0], [63.0, 946.0], [64.0, 946.0], [64.0, 943.0], [65.0, 943.0], [65.0, 941.0], [67.0, 941.0], [67.0, 940.0], [68.0, 940.0], [68.0, 939.0], [69.0, 939.0], [69.0, 937.0], [70.0, 937.0], [70.0, 936.0], [72.0, 936.0], [72.0, 935.0], [74.0, 935.0], [74.0, 934.0], [75.0, 934.0], [75.0, 933.0], [77.0, 933.0], [77.0, 932.0], [82.0, 932.0], [82.0, 931.0], [83.0, 931.0], [83.0, 930.0], [85.0, 930.0], [85.0, 929.0], [86.0, 929.0], [86.0, 928.0], [89.0, 928.0], [89.0, 927.0], [94.0, 927.0], [94.0, 926.0], [103.0, 926.0], [103.0, 927.0], [106.0, 927.0], [106.0, 928.0], [108.0, 928.0], [108.0, 929.0], [109.0, 929.0], [109.0, 930.0], [111.0, 930.0], [111.0, 931.0], [113.0, 931.0], [113.0, 932.0], [114.0, 932.0], [114.0, 933.0], [116.0, 933.0], [116.0, 934.0], [117.0, 934.0], [117.0, 935.0], [119.0, 935.0], [119.0, 936.0], [121.0, 936.0], [121.0, 937.0], [123.0, 937.0], [123.0, 938.0], [125.0, 938.0], [125.0, 939.0], [129.0, 939.0], [129.0, 940.0], [132.0, 940.0], [132.0, 941.0], [134.0, 941.0], [134.0, 942.0], [135.0, 942.0], [135.0, 943.0], [136.0, 943.0], [136.0, 944.0], [137.0, 944.0], [137.0, 945.0], [138.0, 945.0], [138.0, 946.0], [140.0, 946.0], [140.0, 947.0], [141.0, 947.0], [141.0, 948.0], [142.0, 948.0], [142.0, 949.0], [143.0, 949.0], [143.0, 950.0], [144.0, 950.0], [144.0, 951.0], [146.0, 951.0], [146.0, 953.0], [147.0, 953.0], [147.0, 954.0], [148.0, 954.0], [148.0, 955.0], [149.0, 955.0], [149.0, 956.0], [150.0, 956.0], [150.0, 957.0], [151.0, 957.0], [151.0, 958.0], [152.0, 958.0], [152.0, 959.0], [154.0, 959.0], [154.0, 960.0], [155.0, 960.0], [155.0, 961.0], [157.0, 961.0], [157.0, 962.0], [159.0, 962.0], [159.0, 963.0], [160.0, 963.0], [160.0, 964.0], [162.0, 964.0], [162.0, 965.0], [163.0, 965.0], [163.0, 966.0], [164.0, 966.0], [164.0, 967.0], [166.0, 967.0], [166.0, 968.0], [167.0, 968.0], [167.0, 969.0], [169.0, 969.0], [169.0, 970.0], [170.0, 970.0], [170.0, 971.0], [172.0, 971.0], [172.0, 972.0], [173.0, 972.0], [173.0, 973.0], [174.0, 973.0], [174.0, 974.0], [176.0, 974.0], [176.0, 975.0], [177.0, 975.0], [177.0, 976.0], [179.0, 976.0], [179.0, 977.0], [180.0, 977.0], [180.0, 978.0], [182.0, 978.0], [182.0, 979.0], [183.0, 979.0], [183.0, 980.0], [185.0, 980.0], [185.0, 981.0], [186.0, 981.0], [186.0, 982.0], [187.0, 982.0], [187.0, 983.0], [188.0, 983.0], [188.0, 984.0], [189.0, 984.0], [189.0, 985.0], [190.0, 985.0], [190.0, 986.0], [191.0, 986.0], [191.0, 987.0], [192.0, 987.0], [192.0, 988.0], [194.0, 988.0], [194.0, 989.0], [195.0, 989.0], [195.0, 990.0], [198.0, 990.0], [198.0, 991.0], [201.0, 991.0], [201.0, 992.0], [203.0, 992.0], [203.0, 993.0], [204.0, 993.0], [204.0, 994.0], [205.0, 994.0], [205.0, 997.0], [206.0, 997.0], [206.0, 999.0], [207.0, 999.0], [207.0, 1000.0], [208.0, 1000.0], [208.0, 1001.0], [210.0, 1001.0], [210.0, 1002.0], [211.0, 1002.0], [211.0, 1003.0], [213.0, 1003.0], [213.0, 1004.0], [215.0, 1004.0], [215.0, 1005.0], [218.0, 1005.0], [218.0, 1006.0], [219.0, 1006.0], [219.0, 1007.0], [220.0, 1007.0], [220.0, 1008.0], [221.0, 1008.0], [221.0, 1010.0], [222.0, 1010.0], [222.0, 1015.0], [221.0, 1015.0], [221.0, 1019.0], [220.0, 1019.0], [220.0, 1020.0], [219.0, 1020.0], [219.0, 1021.0], [218.0, 1021.0], [218.0, 1022.0], [217.0, 1022.0], [217.0, 1024.0], [1024.0, 1024.0], [1024.0, 0.0], [0.0, 0.0]], [[137.0, 523.0], [139.0, 523.0], [139.0, 530.0], [138.0, 530.0], [138.0, 531.0], [137.0, 531.0], [137.0, 533.0], [136.0, 533.0], [136.0, 534.0], [135.0, 534.0], [135.0, 535.0], [134.0, 535.0], [134.0, 536.0], [131.0, 536.0], [131.0, 537.0], [130.0, 537.0], [130.0, 536.0], [129.0, 536.0], [129.0, 529.0], [130.0, 529.0], [130.0, 528.0], [131.0, 528.0], [131.0, 527.0], [132.0, 527.0], [132.0, 526.0], [133.0, 526.0], [133.0, 525.0], [134.0, 525.0], [134.0, 524.0], [137.0, 524.0], [137.0, 523.0]], [[156.0, 557.0], [158.0, 557.0], [158.0, 558.0], [159.0, 558.0], [159.0, 562.0], [158.0, 562.0], [158.0, 563.0], [157.0, 563.0], [157.0, 564.0], [155.0, 564.0], [155.0, 565.0], [154.0, 565.0], [154.0, 566.0], [152.0, 566.0], [152.0, 567.0], [151.0, 567.0], [151.0, 569.0], [150.0, 569.0], [150.0, 571.0], [151.0, 571.0], [151.0, 575.0], [150.0, 575.0], [150.0, 576.0], [149.0, 576.0], [149.0, 577.0], [148.0, 577.0], [148.0, 578.0], [149.0, 578.0], [149.0, 579.0], [150.0, 579.0], [150.0, 580.0], [152.0, 580.0], [152.0, 581.0], [153.0, 581.0], [153.0, 582.0], [155.0, 582.0], [155.0, 583.0], [156.0, 583.0], [156.0, 587.0], [157.0, 587.0], [157.0, 588.0], [159.0, 588.0], [159.0, 587.0], [160.0, 587.0], [160.0, 586.0], [166.0, 586.0], [166.0, 591.0], [165.0, 591.0], [165.0, 595.0], [164.0, 595.0], [164.0, 596.0], [163.0, 596.0], [163.0, 597.0], [161.0, 597.0], [161.0, 600.0], [163.0, 600.0], [163.0, 601.0], [164.0, 601.0], [164.0, 602.0], [165.0, 602.0], [165.0, 603.0], [167.0, 603.0], [167.0, 602.0], [168.0, 602.0], [168.0, 600.0], [169.0, 600.0], [169.0, 598.0], [170.0, 598.0], [170.0, 597.0], [173.0, 597.0], [173.0, 596.0], [174.0, 596.0], [174.0, 597.0], [175.0, 597.0], [175.0, 603.0], [174.0, 603.0], [174.0, 605.0], [173.0, 605.0], [173.0, 607.0], [172.0, 607.0], [172.0, 611.0], [173.0, 611.0], [173.0, 612.0], [174.0, 612.0], [174.0, 613.0], [175.0, 613.0], [175.0, 614.0], [176.0, 614.0], [176.0, 615.0], [174.0, 615.0], [174.0, 616.0], [173.0, 616.0], [173.0, 618.0], [172.0, 618.0], [172.0, 619.0], [170.0, 619.0], [170.0, 620.0], [169.0, 620.0], [169.0, 621.0], [168.0, 621.0], [168.0, 622.0], [167.0, 622.0], [167.0, 623.0], [165.0, 623.0], [165.0, 624.0], [163.0, 624.0], [163.0, 625.0], [162.0, 625.0], [162.0, 627.0], [161.0, 627.0], [161.0, 629.0], [160.0, 629.0], [160.0, 635.0], [159.0, 635.0], [159.0, 637.0], [158.0, 637.0], [158.0, 638.0], [156.0, 638.0], [156.0, 639.0], [155.0, 639.0], [155.0, 642.0], [154.0, 642.0], [154.0, 643.0], [153.0, 643.0], [153.0, 638.0], [152.0, 638.0], [152.0, 637.0], [151.0, 637.0], [151.0, 636.0], [148.0, 636.0], [148.0, 639.0], [147.0, 639.0], [147.0, 640.0], [145.0, 640.0], [145.0, 636.0], [146.0, 636.0], [146.0, 635.0], [148.0, 635.0], [148.0, 634.0], [149.0, 634.0], [149.0, 633.0], [150.0, 633.0], [150.0, 632.0], [151.0, 632.0], [151.0, 631.0], [152.0, 631.0], [152.0, 630.0], [153.0, 630.0], [153.0, 629.0], [154.0, 629.0], [154.0, 626.0], [155.0, 626.0], [155.0, 624.0], [156.0, 624.0], [156.0, 622.0], [157.0, 622.0], [157.0, 617.0], [158.0, 617.0], [158.0, 616.0], [163.0, 616.0], [163.0, 614.0], [164.0, 614.0], [164.0, 613.0], [165.0, 613.0], [165.0, 612.0], [166.0, 612.0], [166.0, 611.0], [167.0, 611.0], [167.0, 608.0], [166.0, 608.0], [166.0, 607.0], [159.0, 607.0], [159.0, 608.0], [157.0, 608.0], [157.0, 609.0], [156.0, 609.0], [156.0, 611.0], [155.0, 611.0], [155.0, 613.0], [154.0, 613.0], [154.0, 614.0], [153.0, 614.0], [153.0, 616.0], [152.0, 616.0], [152.0, 617.0], [151.0, 617.0], [151.0, 618.0], [145.0, 618.0], [145.0, 617.0], [141.0, 617.0], [141.0, 616.0], [140.0, 616.0], [140.0, 615.0], [139.0, 615.0], [139.0, 614.0], [140.0, 614.0], [140.0, 612.0], [141.0, 612.0], [141.0, 611.0], [142.0, 611.0], [142.0, 609.0], [143.0, 609.0], [143.0, 608.0], [146.0, 608.0], [146.0, 607.0], [148.0, 607.0], [148.0, 606.0], [149.0, 606.0], [149.0, 605.0], [150.0, 605.0], [150.0, 603.0], [151.0, 603.0], [151.0, 601.0], [152.0, 601.0], [152.0, 592.0], [153.0, 592.0], [153.0, 587.0], [152.0, 587.0], [152.0, 586.0], [149.0, 586.0], [149.0, 588.0], [148.0, 588.0], [148.0, 589.0], [147.0, 589.0], [147.0, 590.0], [146.0, 590.0], [146.0, 591.0], [145.0, 591.0], [145.0, 594.0], [144.0, 594.0], [144.0, 596.0], [143.0, 596.0], [143.0, 597.0], [141.0, 597.0], [141.0, 598.0], [139.0, 598.0], [139.0, 599.0], [137.0, 599.0], [137.0, 600.0], [136.0, 600.0], [136.0, 601.0], [132.0, 601.0], [132.0, 599.0], [131.0, 599.0], [131.0, 595.0], [132.0, 595.0], [132.0, 593.0], [131.0, 593.0], [131.0, 588.0], [132.0, 588.0], [132.0, 581.0], [131.0, 581.0], [131.0, 579.0], [130.0, 579.0], [130.0, 580.0], [129.0, 580.0], [129.0, 582.0], [128.0, 582.0], [128.0, 586.0], [127.0, 586.0], [127.0, 589.0], [124.0, 589.0], [124.0, 590.0], [122.0, 590.0], [122.0, 586.0], [121.0, 586.0], [121.0, 584.0], [120.0, 584.0], [120.0, 583.0], [118.0, 583.0], [118.0, 582.0], [112.0, 582.0], [112.0, 583.0], [111.0, 583.0], [111.0, 584.0], [109.0, 584.0], [109.0, 576.0], [111.0, 576.0], [111.0, 575.0], [112.0, 575.0], [112.0, 574.0], [116.0, 574.0], [116.0, 575.0], [117.0, 575.0], [117.0, 576.0], [122.0, 576.0], [122.0, 575.0], [124.0, 575.0], [124.0, 574.0], [125.0, 574.0], [125.0, 573.0], [129.0, 573.0], [129.0, 574.0], [131.0, 574.0], [131.0, 575.0], [135.0, 575.0], [135.0, 574.0], [142.0, 574.0], [142.0, 573.0], [143.0, 573.0], [143.0, 572.0], [145.0, 572.0], [145.0, 571.0], [147.0, 571.0], [147.0, 568.0], [146.0, 568.0], [146.0, 565.0], [147.0, 565.0], [147.0, 562.0], [148.0, 562.0], [148.0, 561.0], [150.0, 561.0], [150.0, 560.0], [152.0, 560.0], [152.0, 559.0], [153.0, 559.0], [153.0, 558.0], [156.0, 558.0], [156.0, 557.0]], [[122.0, 601.0], [127.0, 601.0], [127.0, 604.0], [126.0, 604.0], [126.0, 606.0], [124.0, 606.0], [124.0, 607.0], [120.0, 607.0], [120.0, 608.0], [119.0, 608.0], [119.0, 610.0], [118.0, 610.0], [118.0, 612.0], [116.0, 612.0], [116.0, 613.0], [113.0, 613.0], [113.0, 611.0], [112.0, 611.0], [112.0, 608.0], [113.0, 608.0], [113.0, 605.0], [114.0, 605.0], [114.0, 604.0], [115.0, 604.0], [115.0, 605.0], [119.0, 605.0], [119.0, 604.0], [120.0, 604.0], [120.0, 603.0], [121.0, 603.0], [121.0, 602.0], [122.0, 602.0], [122.0, 601.0]], [[129.0, 608.0], [133.0, 608.0], [133.0, 611.0], [132.0, 611.0], [132.0, 613.0], [131.0, 613.0], [131.0, 616.0], [130.0, 616.0], [130.0, 617.0], [129.0, 617.0], [129.0, 618.0], [127.0, 618.0], [127.0, 619.0], [125.0, 619.0], [125.0, 618.0], [124.0, 618.0], [124.0, 616.0], [125.0, 616.0], [125.0, 613.0], [126.0, 613.0], [126.0, 612.0], [128.0, 612.0], [128.0, 609.0], [129.0, 609.0], [129.0, 608.0]], [[184.0, 608.0], [189.0, 608.0], [189.0, 609.0], [190.0, 609.0], [190.0, 610.0], [189.0, 610.0], [189.0, 611.0], [188.0, 611.0], [188.0, 612.0], [187.0, 612.0], [187.0, 614.0], [186.0, 614.0], [186.0, 615.0], [185.0, 615.0], [185.0, 616.0], [184.0, 616.0], [184.0, 617.0], [183.0, 617.0], [183.0, 619.0], [182.0, 619.0], [182.0, 620.0], [181.0, 620.0], [181.0, 621.0], [180.0, 621.0], [180.0, 622.0], [179.0, 622.0], [179.0, 624.0], [177.0, 624.0], [177.0, 618.0], [178.0, 618.0], [178.0, 615.0], [179.0, 615.0], [179.0, 613.0], [180.0, 613.0], [180.0, 612.0], [181.0, 612.0], [181.0, 611.0], [182.0, 611.0], [182.0, 610.0], [183.0, 610.0], [183.0, 609.0], [184.0, 609.0], [184.0, 608.0]], [[182.0, 647.0], [183.0, 647.0], [183.0, 648.0], [184.0, 648.0], [184.0, 654.0], [183.0, 654.0], [183.0, 658.0], [184.0, 658.0], [184.0, 659.0], [188.0, 659.0], [188.0, 649.0], [190.0, 649.0], [190.0, 648.0], [192.0, 648.0], [192.0, 649.0], [194.0, 649.0], [194.0, 650.0], [195.0, 650.0], [195.0, 652.0], [194.0, 652.0], [194.0, 655.0], [192.0, 655.0], [192.0, 656.0], [191.0, 656.0], [191.0, 659.0], [190.0, 659.0], [190.0, 660.0], [189.0, 660.0], [189.0, 662.0], [188.0, 662.0], [188.0, 663.0], [187.0, 663.0], [187.0, 664.0], [185.0, 664.0], [185.0, 665.0], [182.0, 665.0], [182.0, 666.0], [180.0, 666.0], [180.0, 667.0], [179.0, 667.0], [179.0, 668.0], [178.0, 668.0], [178.0, 669.0], [176.0, 669.0], [176.0, 670.0], [175.0, 670.0], [175.0, 671.0], [173.0, 671.0], [173.0, 666.0], [174.0, 666.0], [174.0, 664.0], [175.0, 664.0], [175.0, 663.0], [176.0, 663.0], [176.0, 661.0], [177.0, 661.0], [177.0, 660.0], [178.0, 660.0], [178.0, 659.0], [179.0, 659.0], [179.0, 658.0], [180.0, 658.0], [180.0, 653.0], [181.0, 653.0], [181.0, 649.0], [182.0, 649.0], [182.0, 647.0]], [[256.0, 687.0], [260.0, 687.0], [260.0, 688.0], [261.0, 688.0], [261.0, 692.0], [260.0, 692.0], [260.0, 693.0], [259.0, 693.0], [259.0, 695.0], [258.0, 695.0], [258.0, 696.0], [257.0, 696.0], [257.0, 699.0], [258.0, 699.0], [258.0, 700.0], [259.0, 700.0], [259.0, 704.0], [258.0, 704.0], [258.0, 705.0], [257.0, 705.0], [257.0, 706.0], [256.0, 706.0], [256.0, 707.0], [254.0, 707.0], [254.0, 708.0], [253.0, 708.0], [253.0, 709.0], [251.0, 709.0], [251.0, 710.0], [250.0, 710.0], [250.0, 711.0], [248.0, 711.0], [248.0, 712.0], [246.0, 712.0], [246.0, 713.0], [245.0, 713.0], [245.0, 712.0], [241.0, 712.0], [241.0, 711.0], [240.0, 711.0], [240.0, 708.0], [241.0, 708.0], [241.0, 706.0], [242.0, 706.0], [242.0, 705.0], [243.0, 705.0], [243.0, 704.0], [244.0, 704.0], [244.0, 703.0], [245.0, 703.0], [245.0, 701.0], [246.0, 701.0], [246.0, 700.0], [247.0, 700.0], [247.0, 699.0], [248.0, 699.0], [248.0, 696.0], [249.0, 696.0], [249.0, 694.0], [250.0, 694.0], [250.0, 693.0], [251.0, 693.0], [251.0, 692.0], [252.0, 692.0], [252.0, 691.0], [253.0, 691.0], [253.0, 690.0], [254.0, 690.0], [254.0, 689.0], [255.0, 689.0], [255.0, 688.0], [256.0, 688.0], [256.0, 687.0]]]}}]}