{"type": "FeatureCollection", "features": [{"type": "Feature", "properties": {"class_id": 1, "class_name": "Tree"}, "geometry": {"type": "Polygon", "coordinates": [[[1020.0, 547.0], [1020.0, 548.0], [1017.0, 548.0], [1017.0, 549.0], [1016.0, 549.0], [1016.0, 551.0], [1015.0, 551.0], [1015.0, 554.0], [1014.0, 554.0], [1014.0, 556.0], [1013.0, 556.0], [1013.0, 559.0], [1012.0, 559.0], [1012.0, 562.0], [1011.0, 562.0], [1011.0, 564.0], [1010.0, 564.0], [1010.0, 566.0], [1009.0, 566.0], [1009.0, 567.0], [1008.0, 567.0], [1008.0, 569.0], [1007.0, 569.0], [1007.0, 573.0], [1006.0, 573.0], [1006.0, 580.0], [1005.0, 580.0], [1005.0, 592.0], [1004.0, 592.0], [1004.0, 596.0], [1003.0, 596.0], [1003.0, 598.0], [1002.0, 598.0], [1002.0, 599.0], [1001.0, 599.0], [1001.0, 600.0], [1000.0, 600.0], [1000.0, 602.0], [999.0, 602.0], [999.0, 603.0], [998.0, 603.0], [998.0, 604.0], [996.0, 604.0], [996.0, 605.0], [993.0, 605.0], [993.0, 604.0], [992.0, 604.0], [992.0, 602.0], [991.0, 602.0], [991.0, 600.0], [989.0, 600.0], [989.0, 601.0], [986.0, 601.0], [986.0, 602.0], [985.0, 602.0], [985.0, 604.0], [984.0, 604.0], [984.0, 607.0], [983.0, 607.0], [983.0, 609.0], [982.0, 609.0], [982.0, 612.0], [981.0, 612.0], [981.0, 621.0], [980.0, 621.0], [980.0, 628.0], [981.0, 628.0], [981.0, 630.0], [982.0, 630.0], [982.0, 632.0], [983.0, 632.0], [983.0, 633.0], [987.0, 633.0], [987.0, 632.0], [988.0, 632.0], [988.0, 631.0], [989.0, 631.0], [989.0, 630.0], [990.0, 630.0], [990.0, 629.0], [992.0, 629.0], [992.0, 628.0], [994.0, 628.0], [994.0, 627.0], [998.0, 627.0], [998.0, 626.0], [1000.0, 626.0], [1000.0, 624.0], [1001.0, 624.0], [1001.0, 621.0], [1005.0, 621.0], [1005.0, 620.0], [1006.0, 620.0], [1006.0, 621.0], [1007.0, 621.0], [1007.0, 631.0], [1006.0, 631.0], [1006.0, 633.0], [1005.0, 633.0], [1005.0, 635.0], [1004.0, 635.0], [1004.0, 638.0], [1003.0, 638.0], [1003.0, 639.0], [1002.0, 639.0], [1002.0, 640.0], [1001.0, 640.0], [1001.0, 641.0], [1000.0, 641.0], [1000.0, 643.0], [999.0, 643.0], [999.0, 645.0], [998.0, 645.0], [998.0, 646.0], [997.0, 646.0], [997.0, 647.0], [1005.0, 647.0], [1005.0, 646.0], [1008.0, 646.0], [1008.0, 645.0], [1010.0, 645.0], [1010.0, 644.0], [1013.0, 644.0], [1013.0, 643.0], [1016.0, 643.0], [1016.0, 642.0], [1019.0, 642.0], [1019.0, 641.0], [1024.0, 641.0], [1024.0, 547.0], [1020.0, 547.0]]]}}, {"type": "Feature", "properties": {"class_id": 7, "class_name": "Bareland"}, "geometry": {"type": "Polygon", "coordinates": [[[1021.0, 526.0], [1021.0, 527.0], [1020.0, 527.0], [1020.0, 528.0], [1017.0, 528.0], [1017.0, 529.0], [1009.0, 529.0], [1009.0, 530.0], [1008.0, 530.0], [1008.0, 532.0], [1007.0, 532.0], [1007.0, 533.0], [1006.0, 533.0], [1006.0, 535.0], [1005.0, 535.0], [1005.0, 537.0], [1004.0, 537.0], [1004.0, 538.0], [1003.0, 538.0], [1003.0, 539.0], [1002.0, 539.0], [1002.0, 541.0], [1001.0, 541.0], [1001.0, 543.0], [1000.0, 543.0], [1000.0, 544.0], [999.0, 544.0], [999.0, 545.0], [998.0, 545.0], [998.0, 548.0], [999.0, 548.0], [999.0, 550.0], [1000.0, 550.0], [1000.0, 552.0], [1001.0, 552.0], [1001.0, 555.0], [1000.0, 555.0], [1000.0, 558.0], [999.0, 558.0], [999.0, 561.0], [998.0, 561.0], [998.0, 563.0], [997.0, 563.0], [997.0, 565.0], [996.0, 565.0], [996.0, 568.0], [995.0, 568.0], [995.0, 571.0], [994.0, 571.0], [994.0, 572.0], [993.0, 572.0], [993.0, 573.0], [992.0, 573.0], [992.0, 575.0], [991.0, 575.0], [991.0, 577.0], [990.0, 577.0], [990.0, 578.0], [989.0, 578.0], [989.0, 579.0], [988.0, 579.0], [988.0, 580.0], [987.0, 580.0], [987.0, 581.0], [986.0, 581.0], [986.0, 582.0], [985.0, 582.0], [985.0, 583.0], [984.0, 583.0], [984.0, 584.0], [983.0, 584.0], [983.0, 586.0], [982.0, 586.0], [982.0, 587.0], [981.0, 587.0], [981.0, 588.0], [980.0, 588.0], [980.0, 589.0], [979.0, 589.0], [979.0, 591.0], [978.0, 591.0], [978.0, 592.0], [977.0, 592.0], [977.0, 593.0], [976.0, 593.0], [976.0, 594.0], [975.0, 594.0], [975.0, 596.0], [974.0, 596.0], [974.0, 597.0], [972.0, 597.0], [972.0, 599.0], [970.0, 599.0], [970.0, 600.0], [969.0, 600.0], [969.0, 601.0], [968.0, 601.0], [968.0, 602.0], [967.0, 602.0], [967.0, 603.0], [966.0, 603.0], [966.0, 605.0], [965.0, 605.0], [965.0, 610.0], [964.0, 610.0], [964.0, 611.0], [963.0, 611.0], [963.0, 612.0], [962.0, 612.0], [962.0, 613.0], [960.0, 613.0], [960.0, 614.0], [959.0, 614.0], [959.0, 615.0], [956.0, 615.0], [956.0, 614.0], [955.0, 614.0], [955.0, 613.0], [951.0, 613.0], [951.0, 614.0], [950.0, 614.0], [950.0, 615.0], [946.0, 615.0], [946.0, 616.0], [944.0, 616.0], [944.0, 617.0], [943.0, 617.0], [943.0, 618.0], [937.0, 618.0], [937.0, 620.0], [936.0, 620.0], [936.0, 622.0], [935.0, 622.0], [935.0, 625.0], [934.0, 625.0], [934.0, 626.0], [932.0, 626.0], [932.0, 627.0], [931.0, 627.0], [931.0, 629.0], [930.0, 629.0], [930.0, 630.0], [929.0, 630.0], [929.0, 631.0], [928.0, 631.0], [928.0, 632.0], [927.0, 632.0], [927.0, 634.0], [926.0, 634.0], [926.0, 636.0], [925.0, 636.0], [925.0, 639.0], [924.0, 639.0], [924.0, 641.0], [923.0, 641.0], [923.0, 644.0], [922.0, 644.0], [922.0, 645.0], [921.0, 645.0], [921.0, 644.0], [920.0, 644.0], [920.0, 642.0], [918.0, 642.0], [918.0, 641.0], [916.0, 641.0], [916.0, 639.0], [915.0, 639.0], [915.0, 635.0], [914.0, 635.0], [914.0, 634.0], [912.0, 634.0], [912.0, 635.0], [911.0, 635.0], [911.0, 636.0], [910.0, 636.0], [910.0, 630.0], [909.0, 630.0], [909.0, 629.0], [907.0, 629.0], [907.0, 628.0], [905.0, 628.0], [905.0, 629.0], [903.0, 629.0], [903.0, 631.0], [902.0, 631.0], [902.0, 637.0], [901.0, 637.0], [901.0, 639.0], [900.0, 639.0], [900.0, 641.0], [899.0, 641.0], [899.0, 642.0], [898.0, 642.0], [898.0, 643.0], [897.0, 643.0], [897.0, 644.0], [896.0, 644.0], [896.0, 646.0], [895.0, 646.0], [895.0, 648.0], [894.0, 648.0], [894.0, 649.0], [893.0, 649.0], [893.0, 650.0], [892.0, 650.0], [892.0, 652.0], [891.0, 652.0], [891.0, 654.0], [890.0, 654.0], [890.0, 655.0], [888.0, 655.0], [888.0, 656.0], [887.0, 656.0], [887.0, 662.0], [886.0, 662.0], [886.0, 664.0], [885.0, 664.0], [885.0, 665.0], [884.0, 665.0], [884.0, 667.0], [883.0, 667.0], [883.0, 668.0], [882.0, 668.0], [882.0, 669.0], [875.0, 669.0], [875.0, 668.0], [873.0, 668.0], [873.0, 669.0], [869.0, 669.0], [869.0, 668.0], [867.0, 668.0], [867.0, 667.0], [865.0, 667.0], [865.0, 665.0], [864.0, 665.0], [864.0, 662.0], [863.0, 662.0], [863.0, 661.0], [862.0, 661.0], [862.0, 659.0], [861.0, 659.0], [861.0, 657.0], [862.0, 657.0], [862.0, 655.0], [863.0, 655.0], [863.0, 652.0], [862.0, 652.0], [862.0, 651.0], [861.0, 651.0], [861.0, 653.0], [859.0, 653.0], [859.0, 654.0], [858.0, 654.0], [858.0, 655.0], [857.0, 655.0], [857.0, 660.0], [859.0, 660.0], [859.0, 661.0], [860.0, 661.0], [860.0, 662.0], [859.0, 662.0], [859.0, 665.0], [858.0, 665.0], [858.0, 666.0], [857.0, 666.0], [857.0, 667.0], [855.0, 667.0], [855.0, 668.0], [853.0, 668.0], [853.0, 669.0], [851.0, 669.0], [851.0, 670.0], [847.0, 670.0], [847.0, 671.0], [848.0, 671.0], [848.0, 675.0], [849.0, 675.0], [849.0, 676.0], [854.0, 676.0], [854.0, 675.0], [857.0, 675.0], [857.0, 674.0], [862.0, 674.0], [862.0, 676.0], [863.0, 676.0], [863.0, 679.0], [862.0, 679.0], [862.0, 681.0], [861.0, 681.0], [861.0, 683.0], [862.0, 683.0], [862.0, 685.0], [863.0, 685.0], [863.0, 688.0], [864.0, 688.0], [864.0, 689.0], [866.0, 689.0], [866.0, 690.0], [871.0, 690.0], [871.0, 689.0], [872.0, 689.0], [872.0, 688.0], [874.0, 688.0], [874.0, 687.0], [875.0, 687.0], [875.0, 686.0], [876.0, 686.0], [876.0, 685.0], [882.0, 685.0], [882.0, 686.0], [883.0, 686.0], [883.0, 687.0], [884.0, 687.0], [884.0, 688.0], [885.0, 688.0], [885.0, 690.0], [886.0, 690.0], [886.0, 691.0], [887.0, 691.0], [887.0, 692.0], [890.0, 692.0], [890.0, 693.0], [892.0, 693.0], [892.0, 694.0], [899.0, 694.0], [899.0, 693.0], [902.0, 693.0], [902.0, 692.0], [905.0, 692.0], [905.0, 691.0], [908.0, 691.0], [908.0, 687.0], [907.0, 687.0], [907.0, 686.0], [908.0, 686.0], [908.0, 685.0], [909.0, 685.0], [909.0, 684.0], [912.0, 684.0], [912.0, 683.0], [915.0, 683.0], [915.0, 685.0], [916.0, 685.0], [916.0, 687.0], [915.0, 687.0], [915.0, 689.0], [914.0, 689.0], [914.0, 690.0], [913.0, 690.0], [913.0, 691.0], [912.0, 691.0], [912.0, 692.0], [911.0, 692.0], [911.0, 695.0], [913.0, 695.0], [913.0, 696.0], [914.0, 696.0], [914.0, 697.0], [915.0, 697.0], [915.0, 698.0], [916.0, 698.0], [916.0, 699.0], [917.0, 699.0], [917.0, 700.0], [926.0, 700.0], [926.0, 699.0], [927.0, 699.0], [927.0, 698.0], [928.0, 698.0], [928.0, 694.0], [929.0, 694.0], [929.0, 693.0], [930.0, 693.0], [930.0, 692.0], [931.0, 692.0], [931.0, 691.0], [932.0, 691.0], [932.0, 689.0], [933.0, 689.0], [933.0, 685.0], [935.0, 685.0], [935.0, 684.0], [936.0, 684.0], [936.0, 683.0], [937.0, 683.0], [937.0, 682.0], [938.0, 682.0], [938.0, 681.0], [939.0, 681.0], [939.0, 678.0], [940.0, 678.0], [940.0, 675.0], [941.0, 675.0], [941.0, 673.0], [942.0, 673.0], [942.0, 672.0], [943.0, 672.0], [943.0, 671.0], [944.0, 671.0], [944.0, 669.0], [945.0, 669.0], [945.0, 665.0], [946.0, 665.0], [946.0, 663.0], [947.0, 663.0], [947.0, 661.0], [948.0, 661.0], [948.0, 660.0], [949.0, 660.0], [949.0, 658.0], [950.0, 658.0], [950.0, 657.0], [952.0, 657.0], [952.0, 656.0], [953.0, 656.0], [953.0, 655.0], [955.0, 655.0], [955.0, 654.0], [956.0, 654.0], [956.0, 653.0], [957.0, 653.0], [957.0, 652.0], [958.0, 652.0], [958.0, 650.0], [959.0, 650.0], [959.0, 647.0], [960.0, 647.0], [960.0, 643.0], [961.0, 643.0], [961.0, 640.0], [962.0, 640.0], [962.0, 638.0], [965.0, 638.0], [965.0, 637.0], [967.0, 637.0], [967.0, 636.0], [970.0, 636.0], [970.0, 635.0], [981.0, 635.0], [981.0, 636.0], [982.0, 636.0], [982.0, 637.0], [983.0, 637.0], [983.0, 641.0], [982.0, 641.0], [982.0, 642.0], [983.0, 642.0], [983.0, 645.0], [984.0, 645.0], [984.0, 647.0], [985.0, 647.0], [985.0, 648.0], [986.0, 648.0], [986.0, 649.0], [990.0, 649.0], [990.0, 651.0], [989.0, 651.0], [989.0, 652.0], [988.0, 652.0], [988.0, 654.0], [987.0, 654.0], [987.0, 656.0], [988.0, 656.0], [988.0, 655.0], [989.0, 655.0], [989.0, 654.0], [990.0, 654.0], [990.0, 652.0], [991.0, 652.0], [991.0, 651.0], [992.0, 651.0], [992.0, 650.0], [993.0, 650.0], [993.0, 649.0], [994.0, 649.0], [994.0, 648.0], [995.0, 648.0], [995.0, 647.0], [997.0, 647.0], [997.0, 646.0], [998.0, 646.0], [998.0, 645.0], [999.0, 645.0], [999.0, 643.0], [1000.0, 643.0], [1000.0, 641.0], [1001.0, 641.0], [1001.0, 640.0], [1002.0, 640.0], [1002.0, 639.0], [1003.0, 639.0], [1003.0, 638.0], [1004.0, 638.0], [1004.0, 635.0], [1005.0, 635.0], [1005.0, 633.0], [1006.0, 633.0], [1006.0, 631.0], [1007.0, 631.0], [1007.0, 621.0], [1006.0, 621.0], [1006.0, 620.0], [1005.0, 620.0], [1005.0, 621.0], [1001.0, 621.0], [1001.0, 624.0], [1000.0, 624.0], [1000.0, 626.0], [998.0, 626.0], [998.0, 627.0], [994.0, 627.0], [994.0, 628.0], [992.0, 628.0], [992.0, 629.0], [990.0, 629.0], [990.0, 630.0], [989.0, 630.0], [989.0, 631.0], [988.0, 631.0], [988.0, 632.0], [987.0, 632.0], [987.0, 633.0], [983.0, 633.0], [983.0, 632.0], [982.0, 632.0], [982.0, 630.0], [981.0, 630.0], [981.0, 628.0], [980.0, 628.0], [980.0, 621.0], [981.0, 621.0], [981.0, 612.0], [982.0, 612.0], [982.0, 609.0], [983.0, 609.0], [983.0, 607.0], [984.0, 607.0], [984.0, 604.0], [985.0, 604.0], [985.0, 602.0], [986.0, 602.0], [986.0, 601.0], [989.0, 601.0], [989.0, 600.0], [991.0, 600.0], [991.0, 602.0], [992.0, 602.0], [992.0, 604.0], [993.0, 604.0], [993.0, 605.0], [996.0, 605.0], [996.0, 604.0], [998.0, 604.0], [998.0, 603.0], [999.0, 603.0], [999.0, 602.0], [1000.0, 602.0], [1000.0, 600.0], [1001.0, 600.0], [1001.0, 599.0], [1002.0, 599.0], [1002.0, 598.0], [1003.0, 598.0], [1003.0, 596.0], [1004.0, 596.0], [1004.0, 592.0], [1005.0, 592.0], [1005.0, 580.0], [1006.0, 580.0], [1006.0, 573.0], [1007.0, 573.0], [1007.0, 569.0], [1008.0, 569.0], [1008.0, 567.0], [1009.0, 567.0], [1009.0, 566.0], [1010.0, 566.0], [1010.0, 564.0], [1011.0, 564.0], [1011.0, 562.0], [1012.0, 562.0], [1012.0, 559.0], [1013.0, 559.0], [1013.0, 556.0], [1014.0, 556.0], [1014.0, 554.0], [1015.0, 554.0], [1015.0, 551.0], [1016.0, 551.0], [1016.0, 549.0], [1017.0, 549.0], [1017.0, 548.0], [1020.0, 548.0], [1020.0, 547.0], [1024.0, 547.0], [1024.0, 526.0], [1021.0, 526.0]]]}}, {"type": "Feature", "properties": {"class_id": 7, "class_name": "Bareland"}, "geometry": {"type": "Polygon", "coordinates": [[[978.0, 663.0], [978.0, 664.0], [976.0, 664.0], [976.0, 665.0], [973.0, 665.0], [973.0, 666.0], [972.0, 666.0], [972.0, 667.0], [971.0, 667.0], [971.0, 668.0], [970.0, 668.0], [970.0, 669.0], [969.0, 669.0], [969.0, 670.0], [968.0, 670.0], [968.0, 671.0], [967.0, 671.0], [967.0, 672.0], [966.0, 672.0], [966.0, 673.0], [958.0, 673.0], [958.0, 674.0], [956.0, 674.0], [956.0, 675.0], [955.0, 675.0], [955.0, 676.0], [954.0, 676.0], [954.0, 677.0], [953.0, 677.0], [953.0, 678.0], [952.0, 678.0], [952.0, 680.0], [951.0, 680.0], [951.0, 682.0], [950.0, 682.0], [950.0, 684.0], [949.0, 684.0], [949.0, 686.0], [948.0, 686.0], [948.0, 687.0], [947.0, 687.0], [947.0, 691.0], [946.0, 691.0], [946.0, 693.0], [945.0, 693.0], [945.0, 698.0], [944.0, 698.0], [944.0, 701.0], [943.0, 701.0], [943.0, 703.0], [942.0, 703.0], [942.0, 705.0], [941.0, 705.0], [941.0, 709.0], [942.0, 709.0], [942.0, 710.0], [943.0, 710.0], [943.0, 711.0], [944.0, 711.0], [944.0, 712.0], [946.0, 712.0], [946.0, 713.0], [947.0, 713.0], [947.0, 714.0], [948.0, 714.0], [948.0, 715.0], [949.0, 715.0], [949.0, 716.0], [951.0, 716.0], [951.0, 717.0], [954.0, 717.0], [954.0, 718.0], [956.0, 718.0], [956.0, 719.0], [957.0, 719.0], [957.0, 720.0], [958.0, 720.0], [958.0, 722.0], [959.0, 722.0], [959.0, 726.0], [960.0, 726.0], [960.0, 727.0], [965.0, 727.0], [965.0, 728.0], [970.0, 728.0], [970.0, 729.0], [971.0, 729.0], [971.0, 730.0], [972.0, 730.0], [972.0, 731.0], [973.0, 731.0], [973.0, 732.0], [974.0, 732.0], [974.0, 733.0], [975.0, 733.0], [975.0, 734.0], [977.0, 734.0], [977.0, 735.0], [985.0, 735.0], [985.0, 734.0], [984.0, 734.0], [984.0, 733.0], [983.0, 733.0], [983.0, 732.0], [982.0, 732.0], [982.0, 731.0], [981.0, 731.0], [981.0, 729.0], [980.0, 729.0], [980.0, 727.0], [979.0, 727.0], [979.0, 726.0], [978.0, 726.0], [978.0, 723.0], [977.0, 723.0], [977.0, 721.0], [976.0, 721.0], [976.0, 718.0], [975.0, 718.0], [975.0, 716.0], [974.0, 716.0], [974.0, 715.0], [973.0, 715.0], [973.0, 713.0], [972.0, 713.0], [972.0, 712.0], [971.0, 712.0], [971.0, 711.0], [970.0, 711.0], [970.0, 709.0], [969.0, 709.0], [969.0, 708.0], [968.0, 708.0], [968.0, 707.0], [967.0, 707.0], [967.0, 705.0], [966.0, 705.0], [966.0, 695.0], [967.0, 695.0], [967.0, 693.0], [968.0, 693.0], [968.0, 691.0], [969.0, 691.0], [969.0, 689.0], [970.0, 689.0], [970.0, 686.0], [971.0, 686.0], [971.0, 685.0], [972.0, 685.0], [972.0, 683.0], [973.0, 683.0], [973.0, 682.0], [974.0, 682.0], [974.0, 681.0], [975.0, 681.0], [975.0, 679.0], [976.0, 679.0], [976.0, 676.0], [977.0, 676.0], [977.0, 673.0], [978.0, 673.0], [978.0, 669.0], [979.0, 669.0], [979.0, 667.0], [980.0, 667.0], [980.0, 665.0], [981.0, 665.0], [981.0, 663.0], [978.0, 663.0]]]}}, {"type": "Feature", "properties": {"class_id": 3, "class_name": "Water"}, "geometry": {"type": "Polygon", "coordinates": [[[1019.0, 641.0], [1019.0, 642.0], [1016.0, 642.0], [1016.0, 643.0], [1013.0, 643.0], [1013.0, 644.0], [1010.0, 644.0], [1010.0, 645.0], [1008.0, 645.0], [1008.0, 646.0], [1005.0, 646.0], [1005.0, 647.0], [995.0, 647.0], [995.0, 648.0], [994.0, 648.0], [994.0, 649.0], [993.0, 649.0], [993.0, 650.0], [992.0, 650.0], [992.0, 651.0], [991.0, 651.0], [991.0, 652.0], [990.0, 652.0], [990.0, 654.0], [989.0, 654.0], [989.0, 655.0], [988.0, 655.0], [988.0, 656.0], [987.0, 656.0], [987.0, 658.0], [986.0, 658.0], [986.0, 659.0], [985.0, 659.0], [985.0, 660.0], [984.0, 660.0], [984.0, 661.0], [983.0, 661.0], [983.0, 662.0], [982.0, 662.0], [982.0, 663.0], [981.0, 663.0], [981.0, 665.0], [980.0, 665.0], [980.0, 667.0], [979.0, 667.0], [979.0, 669.0], [978.0, 669.0], [978.0, 673.0], [977.0, 673.0], [977.0, 676.0], [976.0, 676.0], [976.0, 679.0], [975.0, 679.0], [975.0, 681.0], [974.0, 681.0], [974.0, 682.0], [973.0, 682.0], [973.0, 683.0], [972.0, 683.0], [972.0, 685.0], [971.0, 685.0], [971.0, 686.0], [970.0, 686.0], [970.0, 689.0], [969.0, 689.0], [969.0, 691.0], [968.0, 691.0], [968.0, 693.0], [967.0, 693.0], [967.0, 695.0], [966.0, 695.0], [966.0, 705.0], [967.0, 705.0], [967.0, 707.0], [968.0, 707.0], [968.0, 708.0], [969.0, 708.0], [969.0, 709.0], [970.0, 709.0], [970.0, 711.0], [971.0, 711.0], [971.0, 712.0], [972.0, 712.0], [972.0, 713.0], [973.0, 713.0], [973.0, 715.0], [974.0, 715.0], [974.0, 716.0], [975.0, 716.0], [975.0, 718.0], [976.0, 718.0], [976.0, 721.0], [977.0, 721.0], [977.0, 723.0], [978.0, 723.0], [978.0, 726.0], [979.0, 726.0], [979.0, 727.0], [980.0, 727.0], [980.0, 729.0], [981.0, 729.0], [981.0, 731.0], [982.0, 731.0], [982.0, 732.0], [983.0, 732.0], [983.0, 733.0], [984.0, 733.0], [984.0, 734.0], [985.0, 734.0], [985.0, 735.0], [986.0, 735.0], [986.0, 736.0], [987.0, 736.0], [987.0, 737.0], [989.0, 737.0], [989.0, 738.0], [990.0, 738.0], [990.0, 739.0], [992.0, 739.0], [992.0, 740.0], [993.0, 740.0], [993.0, 741.0], [994.0, 741.0], [994.0, 742.0], [995.0, 742.0], [995.0, 743.0], [996.0, 743.0], [996.0, 744.0], [997.0, 744.0], [997.0, 745.0], [998.0, 745.0], [998.0, 746.0], [999.0, 746.0], [999.0, 747.0], [1000.0, 747.0], [1000.0, 748.0], [1001.0, 748.0], [1001.0, 749.0], [1003.0, 749.0], [1003.0, 750.0], [1004.0, 750.0], [1004.0, 751.0], [1005.0, 751.0], [1005.0, 752.0], [1007.0, 752.0], [1007.0, 753.0], [1009.0, 753.0], [1009.0, 754.0], [1014.0, 754.0], [1014.0, 755.0], [1019.0, 755.0], [1019.0, 754.0], [1020.0, 754.0], [1020.0, 753.0], [1021.0, 753.0], [1021.0, 752.0], [1022.0, 752.0], [1022.0, 751.0], [1024.0, 751.0], [1024.0, 641.0], [1019.0, 641.0]]]}}, {"type": "Feature", "properties": {"class_id": 2, "class_name": "Grass"}, "geometry": {"type": "Polygon", "coordinates": [[[4.0, 876.0], [4.0, 877.0], [0.0, 877.0], [0.0, 899.0], [3.0, 899.0], [3.0, 900.0], [5.0, 900.0], [5.0, 901.0], [6.0, 901.0], [6.0, 902.0], [7.0, 902.0], [7.0, 901.0], [9.0, 901.0], [9.0, 900.0], [10.0, 900.0], [10.0, 899.0], [11.0, 899.0], [11.0, 898.0], [12.0, 898.0], [12.0, 897.0], [13.0, 897.0], [13.0, 896.0], [14.0, 896.0], [14.0, 894.0], [17.0, 894.0], [17.0, 895.0], [18.0, 895.0], [18.0, 890.0], [17.0, 890.0], [17.0, 887.0], [16.0, 887.0], [16.0, 885.0], [15.0, 885.0], [15.0, 884.0], [14.0, 884.0], [14.0, 881.0], [13.0, 881.0], [13.0, 880.0], [12.0, 880.0], [12.0, 879.0], [10.0, 879.0], [10.0, 878.0], [9.0, 878.0], [9.0, 877.0], [7.0, 877.0], [7.0, 876.0], [4.0, 876.0]]]}}, {"type": "Feature", "properties": {"class_id": 1, "class_name": "Tree"}, "geometry": {"type": "Polygon", "coordinates": [[[224.0, 913.0], [224.0, 914.0], [223.0, 914.0], [223.0, 921.0], [222.0, 921.0], [222.0, 924.0], [227.0, 924.0], [227.0, 923.0], [228.0, 923.0], [228.0, 922.0], [229.0, 922.0], [229.0, 920.0], [230.0, 920.0], [230.0, 919.0], [231.0, 919.0], [231.0, 917.0], [229.0, 917.0], [229.0, 916.0], [228.0, 916.0], [228.0, 915.0], [227.0, 915.0], [227.0, 913.0], [224.0, 913.0]]]}}, {"type": "Feature", "properties": {"class_id": 2, "class_name": "Grass"}, "geometry": {"type": "Polygon", "coordinates": [[[481.0, 840.0], [481.0, 841.0], [480.0, 841.0], [480.0, 842.0], [478.0, 842.0], [478.0, 843.0], [476.0, 843.0], [476.0, 842.0], [471.0, 842.0], [471.0, 841.0], [469.0, 841.0], [469.0, 842.0], [466.0, 842.0], [466.0, 843.0], [463.0, 843.0], [463.0, 844.0], [460.0, 844.0], [460.0, 845.0], [457.0, 845.0], [457.0, 846.0], [455.0, 846.0], [455.0, 847.0], [454.0, 847.0], [454.0, 848.0], [453.0, 848.0], [453.0, 849.0], [450.0, 849.0], [450.0, 850.0], [448.0, 850.0], [448.0, 851.0], [446.0, 851.0], [446.0, 852.0], [444.0, 852.0], [444.0, 853.0], [443.0, 853.0], [443.0, 854.0], [441.0, 854.0], [441.0, 855.0], [440.0, 855.0], [440.0, 856.0], [439.0, 856.0], [439.0, 857.0], [437.0, 857.0], [437.0, 858.0], [435.0, 858.0], [435.0, 859.0], [434.0, 859.0], [434.0, 860.0], [429.0, 860.0], [429.0, 861.0], [425.0, 861.0], [425.0, 862.0], [424.0, 862.0], [424.0, 863.0], [423.0, 863.0], [423.0, 865.0], [422.0, 865.0], [422.0, 866.0], [421.0, 866.0], [421.0, 868.0], [420.0, 868.0], [420.0, 869.0], [419.0, 869.0], [419.0, 871.0], [418.0, 871.0], [418.0, 873.0], [417.0, 873.0], [417.0, 877.0], [416.0, 877.0], [416.0, 881.0], [415.0, 881.0], [415.0, 883.0], [410.0, 883.0], [410.0, 878.0], [408.0, 878.0], [408.0, 877.0], [400.0, 877.0], [400.0, 876.0], [397.0, 876.0], [397.0, 877.0], [395.0, 877.0], [395.0, 878.0], [394.0, 878.0], [394.0, 879.0], [393.0, 879.0], [393.0, 880.0], [392.0, 880.0], [392.0, 881.0], [391.0, 881.0], [391.0, 882.0], [390.0, 882.0], [390.0, 883.0], [389.0, 883.0], [389.0, 884.0], [388.0, 884.0], [388.0, 885.0], [386.0, 885.0], [386.0, 886.0], [384.0, 886.0], [384.0, 887.0], [380.0, 887.0], [380.0, 888.0], [372.0, 888.0], [372.0, 887.0], [370.0, 887.0], [370.0, 886.0], [361.0, 886.0], [361.0, 887.0], [356.0, 887.0], [356.0, 886.0], [354.0, 886.0], [354.0, 885.0], [353.0, 885.0], [353.0, 884.0], [352.0, 884.0], [352.0, 883.0], [338.0, 883.0], [338.0, 882.0], [335.0, 882.0], [335.0, 881.0], [334.0, 881.0], [334.0, 882.0], [333.0, 882.0], [333.0, 886.0], [331.0, 886.0], [331.0, 887.0], [329.0, 887.0], [329.0, 888.0], [328.0, 888.0], [328.0, 889.0], [327.0, 889.0], [327.0, 890.0], [326.0, 890.0], [326.0, 891.0], [323.0, 891.0], [323.0, 892.0], [320.0, 892.0], [320.0, 893.0], [318.0, 893.0], [318.0, 894.0], [316.0, 894.0], [316.0, 895.0], [311.0, 895.0], [311.0, 896.0], [308.0, 896.0], [308.0, 897.0], [306.0, 897.0], [306.0, 898.0], [305.0, 898.0], [305.0, 899.0], [304.0, 899.0], [304.0, 900.0], [302.0, 900.0], [302.0, 901.0], [301.0, 901.0], [301.0, 902.0], [300.0, 902.0], [300.0, 903.0], [298.0, 903.0], [298.0, 904.0], [297.0, 904.0], [297.0, 905.0], [295.0, 905.0], [295.0, 906.0], [293.0, 906.0], [293.0, 907.0], [291.0, 907.0], [291.0, 908.0], [284.0, 908.0], [284.0, 907.0], [279.0, 907.0], [279.0, 906.0], [277.0, 906.0], [277.0, 905.0], [276.0, 905.0], [276.0, 904.0], [274.0, 904.0], [274.0, 903.0], [272.0, 903.0], [272.0, 902.0], [269.0, 902.0], [269.0, 901.0], [267.0, 901.0], [267.0, 900.0], [262.0, 900.0], [262.0, 901.0], [261.0, 901.0], [261.0, 903.0], [260.0, 903.0], [260.0, 905.0], [259.0, 905.0], [259.0, 907.0], [258.0, 907.0], [258.0, 909.0], [257.0, 909.0], [257.0, 910.0], [256.0, 910.0], [256.0, 911.0], [255.0, 911.0], [255.0, 912.0], [250.0, 912.0], [250.0, 910.0], [249.0, 910.0], [249.0, 907.0], [247.0, 907.0], [247.0, 906.0], [244.0, 906.0], [244.0, 905.0], [243.0, 905.0], [243.0, 904.0], [242.0, 904.0], [242.0, 905.0], [241.0, 905.0], [241.0, 906.0], [240.0, 906.0], [240.0, 907.0], [232.0, 907.0], [232.0, 906.0], [228.0, 906.0], [228.0, 907.0], [226.0, 907.0], [226.0, 908.0], [224.0, 908.0], [224.0, 909.0], [223.0, 909.0], [223.0, 910.0], [222.0, 910.0], [222.0, 909.0], [221.0, 909.0], [221.0, 908.0], [220.0, 908.0], [220.0, 906.0], [219.0, 906.0], [219.0, 903.0], [217.0, 903.0], [217.0, 904.0], [216.0, 904.0], [216.0, 905.0], [213.0, 905.0], [213.0, 906.0], [211.0, 906.0], [211.0, 907.0], [209.0, 907.0], [209.0, 905.0], [208.0, 905.0], [208.0, 899.0], [210.0, 899.0], [210.0, 898.0], [206.0, 898.0], [206.0, 900.0], [205.0, 900.0], [205.0, 901.0], [203.0, 901.0], [203.0, 902.0], [196.0, 902.0], [196.0, 901.0], [194.0, 901.0], [194.0, 900.0], [193.0, 900.0], [193.0, 898.0], [192.0, 898.0], [192.0, 897.0], [191.0, 897.0], [191.0, 895.0], [190.0, 895.0], [190.0, 894.0], [188.0, 894.0], [188.0, 893.0], [187.0, 893.0], [187.0, 892.0], [184.0, 892.0], [184.0, 891.0], [182.0, 891.0], [182.0, 890.0], [180.0, 890.0], [180.0, 889.0], [178.0, 889.0], [178.0, 888.0], [176.0, 888.0], [176.0, 887.0], [175.0, 887.0], [175.0, 886.0], [173.0, 886.0], [173.0, 885.0], [163.0, 885.0], [163.0, 886.0], [162.0, 886.0], [162.0, 885.0], [161.0, 885.0], [161.0, 884.0], [160.0, 884.0], [160.0, 883.0], [159.0, 883.0], [159.0, 882.0], [157.0, 882.0], [157.0, 883.0], [155.0, 883.0], [155.0, 884.0], [153.0, 884.0], [153.0, 885.0], [151.0, 885.0], [151.0, 886.0], [145.0, 886.0], [145.0, 885.0], [142.0, 885.0], [142.0, 884.0], [139.0, 884.0], [139.0, 883.0], [137.0, 883.0], [137.0, 882.0], [130.0, 882.0], [130.0, 881.0], [127.0, 881.0], [127.0, 880.0], [125.0, 880.0], [125.0, 879.0], [121.0, 879.0], [121.0, 878.0], [119.0, 878.0], [119.0, 877.0], [106.0, 877.0], [106.0, 876.0], [104.0, 876.0], [104.0, 875.0], [102.0, 875.0], [102.0, 874.0], [98.0, 874.0], [98.0, 873.0], [97.0, 873.0], [97.0, 872.0], [96.0, 872.0], [96.0, 870.0], [95.0, 870.0], [95.0, 869.0], [90.0, 869.0], [90.0, 871.0], [89.0, 871.0], [89.0, 874.0], [83.0, 874.0], [83.0, 872.0], [82.0, 872.0], [82.0, 871.0], [81.0, 871.0], [81.0, 868.0], [82.0, 868.0], [82.0, 867.0], [83.0, 867.0], [83.0, 863.0], [82.0, 863.0], [82.0, 862.0], [81.0, 862.0], [81.0, 863.0], [79.0, 863.0], [79.0, 864.0], [76.0, 864.0], [76.0, 865.0], [72.0, 865.0], [72.0, 866.0], [69.0, 866.0], [69.0, 865.0], [67.0, 865.0], [67.0, 864.0], [64.0, 864.0], [64.0, 863.0], [62.0, 863.0], [62.0, 862.0], [61.0, 862.0], [61.0, 861.0], [59.0, 861.0], [59.0, 860.0], [55.0, 860.0], [55.0, 861.0], [47.0, 861.0], [47.0, 862.0], [46.0, 862.0], [46.0, 863.0], [45.0, 863.0], [45.0, 866.0], [44.0, 866.0], [44.0, 867.0], [45.0, 867.0], [45.0, 872.0], [46.0, 872.0], [46.0, 876.0], [47.0, 876.0], [47.0, 879.0], [48.0, 879.0], [48.0, 882.0], [49.0, 882.0], [49.0, 887.0], [48.0, 887.0], [48.0, 891.0], [47.0, 891.0], [47.0, 892.0], [46.0, 892.0], [46.0, 894.0], [45.0, 894.0], [45.0, 895.0], [44.0, 895.0], [44.0, 896.0], [43.0, 896.0], [43.0, 897.0], [42.0, 897.0], [42.0, 899.0], [41.0, 899.0], [41.0, 906.0], [40.0, 906.0], [40.0, 908.0], [39.0, 908.0], [39.0, 910.0], [37.0, 910.0], [37.0, 911.0], [36.0, 911.0], [36.0, 912.0], [35.0, 912.0], [35.0, 923.0], [34.0, 923.0], [34.0, 924.0], [33.0, 924.0], [33.0, 925.0], [32.0, 925.0], [32.0, 926.0], [31.0, 926.0], [31.0, 928.0], [30.0, 928.0], [30.0, 930.0], [29.0, 930.0], [29.0, 932.0], [28.0, 932.0], [28.0, 935.0], [27.0, 935.0], [27.0, 936.0], [26.0, 936.0], [26.0, 937.0], [25.0, 937.0], [25.0, 938.0], [24.0, 938.0], [24.0, 939.0], [23.0, 939.0], [23.0, 941.0], [22.0, 941.0], [22.0, 945.0], [21.0, 945.0], [21.0, 946.0], [22.0, 946.0], [22.0, 949.0], [23.0, 949.0], [23.0, 952.0], [24.0, 952.0], [24.0, 955.0], [25.0, 955.0], [25.0, 957.0], [26.0, 957.0], [26.0, 958.0], [27.0, 958.0], [27.0, 959.0], [28.0, 959.0], [28.0, 960.0], [30.0, 960.0], [30.0, 961.0], [31.0, 961.0], [31.0, 962.0], [32.0, 962.0], [32.0, 963.0], [33.0, 963.0], [33.0, 964.0], [34.0, 964.0], [34.0, 965.0], [35.0, 965.0], [35.0, 966.0], [36.0, 966.0], [36.0, 967.0], [38.0, 967.0], [38.0, 968.0], [40.0, 968.0], [40.0, 969.0], [42.0, 969.0], [42.0, 970.0], [44.0, 970.0], [44.0, 971.0], [45.0, 971.0], [45.0, 972.0], [47.0, 972.0], [47.0, 973.0], [48.0, 973.0], [48.0, 975.0], [50.0, 975.0], [50.0, 976.0], [51.0, 976.0], [51.0, 977.0], [52.0, 977.0], [52.0, 978.0], [53.0, 978.0], [53.0, 980.0], [54.0, 980.0], [54.0, 981.0], [55.0, 981.0], [55.0, 983.0], [56.0, 983.0], [56.0, 984.0], [57.0, 984.0], [57.0, 985.0], [58.0, 985.0], [58.0, 986.0], [59.0, 986.0], [59.0, 987.0], [60.0, 987.0], [60.0, 988.0], [63.0, 988.0], [63.0, 989.0], [66.0, 989.0], [66.0, 990.0], [68.0, 990.0], [68.0, 991.0], [69.0, 991.0], [69.0, 992.0], [72.0, 992.0], [72.0, 993.0], [74.0, 993.0], [74.0, 994.0], [75.0, 994.0], [75.0, 995.0], [77.0, 995.0], [77.0, 996.0], [79.0, 996.0], [79.0, 997.0], [80.0, 997.0], [80.0, 998.0], [81.0, 998.0], [81.0, 999.0], [82.0, 999.0], [82.0, 1001.0], [83.0, 1001.0], [83.0, 1002.0], [84.0, 1002.0], [84.0, 1003.0], [85.0, 1003.0], [85.0, 1005.0], [86.0, 1005.0], [86.0, 1006.0], [93.0, 1006.0], [93.0, 1005.0], [97.0, 1005.0], [97.0, 1004.0], [100.0, 1004.0], [100.0, 1003.0], [102.0, 1003.0], [102.0, 1002.0], [104.0, 1002.0], [104.0, 1001.0], [106.0, 1001.0], [106.0, 1000.0], [110.0, 1000.0], [110.0, 999.0], [113.0, 999.0], [113.0, 998.0], [115.0, 998.0], [115.0, 997.0], [117.0, 997.0], [117.0, 996.0], [125.0, 996.0], [125.0, 995.0], [127.0, 995.0], [127.0, 998.0], [128.0, 998.0], [128.0, 1000.0], [129.0, 1000.0], [129.0, 1002.0], [130.0, 1002.0], [130.0, 1003.0], [131.0, 1003.0], [131.0, 1004.0], [132.0, 1004.0], [132.0, 1006.0], [133.0, 1006.0], [133.0, 1008.0], [134.0, 1008.0], [134.0, 1011.0], [135.0, 1011.0], [135.0, 1016.0], [136.0, 1016.0], [136.0, 1024.0], [164.0, 1024.0], [164.0, 1013.0], [165.0, 1013.0], [165.0, 1011.0], [166.0, 1011.0], [166.0, 1010.0], [167.0, 1010.0], [167.0, 1009.0], [168.0, 1009.0], [168.0, 1007.0], [169.0, 1007.0], [169.0, 1006.0], [170.0, 1006.0], [170.0, 1005.0], [172.0, 1005.0], [172.0, 1004.0], [173.0, 1004.0], [173.0, 1003.0], [175.0, 1003.0], [175.0, 1002.0], [177.0, 1002.0], [177.0, 1001.0], [179.0, 1001.0], [179.0, 1000.0], [182.0, 1000.0], [182.0, 999.0], [186.0, 999.0], [186.0, 998.0], [188.0, 998.0], [188.0, 997.0], [190.0, 997.0], [190.0, 996.0], [191.0, 996.0], [191.0, 995.0], [193.0, 995.0], [193.0, 994.0], [194.0, 994.0], [194.0, 993.0], [195.0, 993.0], [195.0, 991.0], [196.0, 991.0], [196.0, 989.0], [197.0, 989.0], [197.0, 978.0], [198.0, 978.0], [198.0, 976.0], [199.0, 976.0], [199.0, 975.0], [200.0, 975.0], [200.0, 973.0], [201.0, 973.0], [201.0, 972.0], [202.0, 972.0], [202.0, 971.0], [203.0, 971.0], [203.0, 970.0], [204.0, 970.0], [204.0, 967.0], [205.0, 967.0], [205.0, 964.0], [206.0, 964.0], [206.0, 963.0], [207.0, 963.0], [207.0, 960.0], [208.0, 960.0], [208.0, 956.0], [209.0, 956.0], [209.0, 952.0], [210.0, 952.0], [210.0, 951.0], [211.0, 951.0], [211.0, 950.0], [213.0, 950.0], [213.0, 949.0], [215.0, 949.0], [215.0, 948.0], [218.0, 948.0], [218.0, 947.0], [224.0, 947.0], [224.0, 948.0], [227.0, 948.0], [227.0, 947.0], [234.0, 947.0], [234.0, 948.0], [235.0, 948.0], [235.0, 949.0], [236.0, 949.0], [236.0, 952.0], [237.0, 952.0], [237.0, 954.0], [238.0, 954.0], [238.0, 958.0], [239.0, 958.0], [239.0, 962.0], [240.0, 962.0], [240.0, 964.0], [241.0, 964.0], [241.0, 965.0], [242.0, 965.0], [242.0, 966.0], [243.0, 966.0], [243.0, 969.0], [244.0, 969.0], [244.0, 972.0], [245.0, 972.0], [245.0, 974.0], [246.0, 974.0], [246.0, 975.0], [247.0, 975.0], [247.0, 976.0], [248.0, 976.0], [248.0, 978.0], [249.0, 978.0], [249.0, 981.0], [250.0, 981.0], [250.0, 983.0], [251.0, 983.0], [251.0, 985.0], [252.0, 985.0], [252.0, 986.0], [253.0, 986.0], [253.0, 987.0], [254.0, 987.0], [254.0, 988.0], [256.0, 988.0], [256.0, 989.0], [258.0, 989.0], [258.0, 990.0], [259.0, 990.0], [259.0, 991.0], [260.0, 991.0], [260.0, 993.0], [261.0, 993.0], [261.0, 994.0], [262.0, 994.0], [262.0, 995.0], [263.0, 995.0], [263.0, 996.0], [265.0, 996.0], [265.0, 997.0], [277.0, 997.0], [277.0, 996.0], [278.0, 996.0], [278.0, 997.0], [284.0, 997.0], [284.0, 998.0], [287.0, 998.0], [287.0, 999.0], [290.0, 999.0], [290.0, 1000.0], [299.0, 1000.0], [299.0, 999.0], [301.0, 999.0], [301.0, 998.0], [303.0, 998.0], [303.0, 996.0], [304.0, 996.0], [304.0, 995.0], [305.0, 995.0], [305.0, 994.0], [306.0, 994.0], [306.0, 992.0], [307.0, 992.0], [307.0, 990.0], [308.0, 990.0], [308.0, 988.0], [309.0, 988.0], [309.0, 986.0], [310.0, 986.0], [310.0, 985.0], [312.0, 985.0], [312.0, 984.0], [314.0, 984.0], [314.0, 983.0], [317.0, 983.0], [317.0, 982.0], [319.0, 982.0], [319.0, 983.0], [322.0, 983.0], [322.0, 984.0], [325.0, 984.0], [325.0, 985.0], [330.0, 985.0], [330.0, 986.0], [332.0, 986.0], [332.0, 987.0], [334.0, 987.0], [334.0, 988.0], [336.0, 988.0], [336.0, 989.0], [338.0, 989.0], [338.0, 990.0], [340.0, 990.0], [340.0, 991.0], [347.0, 991.0], [347.0, 990.0], [349.0, 990.0], [349.0, 989.0], [351.0, 989.0], [351.0, 988.0], [353.0, 988.0], [353.0, 987.0], [356.0, 987.0], [356.0, 986.0], [358.0, 986.0], [358.0, 985.0], [369.0, 985.0], [369.0, 984.0], [372.0, 984.0], [372.0, 983.0], [376.0, 983.0], [376.0, 982.0], [384.0, 982.0], [384.0, 981.0], [386.0, 981.0], [386.0, 980.0], [387.0, 980.0], [387.0, 979.0], [388.0, 979.0], [388.0, 978.0], [389.0, 978.0], [389.0, 977.0], [390.0, 977.0], [390.0, 975.0], [391.0, 975.0], [391.0, 972.0], [392.0, 972.0], [392.0, 969.0], [393.0, 969.0], [393.0, 968.0], [394.0, 968.0], [394.0, 966.0], [395.0, 966.0], [395.0, 965.0], [396.0, 965.0], [396.0, 964.0], [398.0, 964.0], [398.0, 963.0], [399.0, 963.0], [399.0, 961.0], [400.0, 961.0], [400.0, 959.0], [401.0, 959.0], [401.0, 952.0], [400.0, 952.0], [400.0, 950.0], [399.0, 950.0], [399.0, 949.0], [398.0, 949.0], [398.0, 948.0], [397.0, 948.0], [397.0, 947.0], [396.0, 947.0], [396.0, 946.0], [395.0, 946.0], [395.0, 944.0], [394.0, 944.0], [394.0, 943.0], [393.0, 943.0], [393.0, 942.0], [392.0, 942.0], [392.0, 940.0], [391.0, 940.0], [391.0, 939.0], [390.0, 939.0], [390.0, 938.0], [389.0, 938.0], [389.0, 934.0], [388.0, 934.0], [388.0, 924.0], [389.0, 924.0], [389.0, 922.0], [390.0, 922.0], [390.0, 921.0], [391.0, 921.0], [391.0, 920.0], [392.0, 920.0], [392.0, 919.0], [393.0, 919.0], [393.0, 918.0], [394.0, 918.0], [394.0, 917.0], [397.0, 917.0], [397.0, 916.0], [402.0, 916.0], [402.0, 917.0], [404.0, 917.0], [404.0, 918.0], [405.0, 918.0], [405.0, 919.0], [406.0, 919.0], [406.0, 920.0], [407.0, 920.0], [407.0, 921.0], [408.0, 921.0], [408.0, 923.0], [409.0, 923.0], [409.0, 924.0], [410.0, 924.0], [410.0, 925.0], [411.0, 925.0], [411.0, 926.0], [412.0, 926.0], [412.0, 927.0], [413.0, 927.0], [413.0, 929.0], [414.0, 929.0], [414.0, 930.0], [415.0, 930.0], [415.0, 932.0], [416.0, 932.0], [416.0, 935.0], [417.0, 935.0], [417.0, 937.0], [418.0, 937.0], [418.0, 939.0], [419.0, 939.0], [419.0, 941.0], [420.0, 941.0], [420.0, 942.0], [421.0, 942.0], [421.0, 945.0], [422.0, 945.0], [422.0, 946.0], [423.0, 946.0], [423.0, 947.0], [424.0, 947.0], [424.0, 948.0], [425.0, 948.0], [425.0, 949.0], [426.0, 949.0], [426.0, 950.0], [427.0, 950.0], [427.0, 952.0], [428.0, 952.0], [428.0, 966.0], [429.0, 966.0], [429.0, 968.0], [430.0, 968.0], [430.0, 969.0], [431.0, 969.0], [431.0, 970.0], [432.0, 970.0], [432.0, 971.0], [433.0, 971.0], [433.0, 972.0], [434.0, 972.0], [434.0, 973.0], [435.0, 973.0], [435.0, 974.0], [436.0, 974.0], [436.0, 975.0], [438.0, 975.0], [438.0, 976.0], [443.0, 976.0], [443.0, 977.0], [451.0, 977.0], [451.0, 978.0], [452.0, 978.0], [452.0, 980.0], [453.0, 980.0], [453.0, 984.0], [454.0, 984.0], [454.0, 987.0], [455.0, 987.0], [455.0, 989.0], [456.0, 989.0], [456.0, 990.0], [457.0, 990.0], [457.0, 991.0], [459.0, 991.0], [459.0, 992.0], [460.0, 992.0], [460.0, 993.0], [462.0, 993.0], [462.0, 994.0], [463.0, 994.0], [463.0, 995.0], [464.0, 995.0], [464.0, 997.0], [465.0, 997.0], [465.0, 1004.0], [466.0, 1004.0], [466.0, 1008.0], [467.0, 1008.0], [467.0, 1012.0], [468.0, 1012.0], [468.0, 1016.0], [469.0, 1016.0], [469.0, 1024.0], [520.0, 1024.0], [520.0, 1018.0], [521.0, 1018.0], [521.0, 1016.0], [522.0, 1016.0], [522.0, 1015.0], [523.0, 1015.0], [523.0, 1013.0], [522.0, 1013.0], [522.0, 1011.0], [521.0, 1011.0], [521.0, 1010.0], [520.0, 1010.0], [520.0, 1008.0], [519.0, 1008.0], [519.0, 1006.0], [518.0, 1006.0], [518.0, 1005.0], [517.0, 1005.0], [517.0, 1003.0], [516.0, 1003.0], [516.0, 1001.0], [515.0, 1001.0], [515.0, 999.0], [514.0, 999.0], [514.0, 997.0], [513.0, 997.0], [513.0, 990.0], [514.0, 990.0], [514.0, 988.0], [515.0, 988.0], [515.0, 986.0], [516.0, 986.0], [516.0, 984.0], [517.0, 984.0], [517.0, 982.0], [518.0, 982.0], [518.0, 980.0], [519.0, 980.0], [519.0, 978.0], [520.0, 978.0], [520.0, 976.0], [521.0, 976.0], [521.0, 974.0], [522.0, 974.0], [522.0, 972.0], [523.0, 972.0], [523.0, 971.0], [524.0, 971.0], [524.0, 970.0], [525.0, 970.0], [525.0, 969.0], [527.0, 969.0], [527.0, 968.0], [532.0, 968.0], [532.0, 967.0], [536.0, 967.0], [536.0, 966.0], [539.0, 966.0], [539.0, 965.0], [540.0, 965.0], [540.0, 964.0], [541.0, 964.0], [541.0, 963.0], [542.0, 963.0], [542.0, 962.0], [543.0, 962.0], [543.0, 961.0], [544.0, 961.0], [544.0, 960.0], [545.0, 960.0], [545.0, 958.0], [546.0, 958.0], [546.0, 956.0], [547.0, 956.0], [547.0, 954.0], [548.0, 954.0], [548.0, 951.0], [549.0, 951.0], [549.0, 943.0], [550.0, 943.0], [550.0, 941.0], [552.0, 941.0], [552.0, 940.0], [553.0, 940.0], [553.0, 939.0], [554.0, 939.0], [554.0, 938.0], [556.0, 938.0], [556.0, 936.0], [557.0, 936.0], [557.0, 933.0], [558.0, 933.0], [558.0, 911.0], [557.0, 911.0], [557.0, 908.0], [556.0, 908.0], [556.0, 907.0], [555.0, 907.0], [555.0, 906.0], [554.0, 906.0], [554.0, 905.0], [553.0, 905.0], [553.0, 904.0], [552.0, 904.0], [552.0, 903.0], [550.0, 903.0], [550.0, 901.0], [549.0, 901.0], [549.0, 899.0], [548.0, 899.0], [548.0, 897.0], [547.0, 897.0], [547.0, 896.0], [546.0, 896.0], [546.0, 894.0], [545.0, 894.0], [545.0, 893.0], [546.0, 893.0], [546.0, 890.0], [547.0, 890.0], [547.0, 889.0], [548.0, 889.0], [548.0, 887.0], [549.0, 887.0], [549.0, 886.0], [550.0, 886.0], [550.0, 885.0], [551.0, 885.0], [551.0, 884.0], [552.0, 884.0], [552.0, 883.0], [553.0, 883.0], [553.0, 882.0], [554.0, 882.0], [554.0, 874.0], [552.0, 874.0], [552.0, 873.0], [553.0, 873.0], [553.0, 870.0], [552.0, 870.0], [552.0, 867.0], [551.0, 867.0], [551.0, 865.0], [550.0, 865.0], [550.0, 864.0], [548.0, 864.0], [548.0, 863.0], [545.0, 863.0], [545.0, 861.0], [544.0, 861.0], [544.0, 859.0], [543.0, 859.0], [543.0, 858.0], [541.0, 858.0], [541.0, 857.0], [540.0, 857.0], [540.0, 856.0], [539.0, 856.0], [539.0, 854.0], [538.0, 854.0], [538.0, 853.0], [537.0, 853.0], [537.0, 852.0], [535.0, 852.0], [535.0, 851.0], [533.0, 851.0], [533.0, 852.0], [532.0, 852.0], [532.0, 853.0], [531.0, 853.0], [531.0, 854.0], [527.0, 854.0], [527.0, 853.0], [525.0, 853.0], [525.0, 854.0], [521.0, 854.0], [521.0, 853.0], [520.0, 853.0], [520.0, 852.0], [518.0, 852.0], [518.0, 851.0], [516.0, 851.0], [516.0, 850.0], [514.0, 850.0], [514.0, 849.0], [512.0, 849.0], [512.0, 848.0], [511.0, 848.0], [511.0, 847.0], [510.0, 847.0], [510.0, 846.0], [509.0, 846.0], [509.0, 845.0], [508.0, 845.0], [508.0, 844.0], [507.0, 844.0], [507.0, 843.0], [491.0, 843.0], [491.0, 842.0], [488.0, 842.0], [488.0, 841.0], [487.0, 841.0], [487.0, 840.0], [481.0, 840.0]], [[224.0, 913.0], [227.0, 913.0], [227.0, 915.0], [228.0, 915.0], [228.0, 916.0], [229.0, 916.0], [229.0, 917.0], [231.0, 917.0], [231.0, 919.0], [230.0, 919.0], [230.0, 920.0], [229.0, 920.0], [229.0, 922.0], [228.0, 922.0], [228.0, 923.0], [227.0, 923.0], [227.0, 924.0], [222.0, 924.0], [222.0, 921.0], [223.0, 921.0], [223.0, 914.0], [224.0, 914.0], [224.0, 913.0]]]}}, {"type": "Feature", "properties": {"class_id": 1, "class_name": "Tree"}, "geometry": {"type": "Polygon", "coordinates": [[[397.0, 916.0], [397.0, 917.0], [394.0, 917.0], [394.0, 918.0], [393.0, 918.0], [393.0, 919.0], [392.0, 919.0], [392.0, 920.0], [391.0, 920.0], [391.0, 921.0], [390.0, 921.0], [390.0, 922.0], [389.0, 922.0], [389.0, 924.0], [388.0, 924.0], [388.0, 934.0], [389.0, 934.0], [389.0, 938.0], [390.0, 938.0], [390.0, 939.0], [391.0, 939.0], [391.0, 940.0], [392.0, 940.0], [392.0, 942.0], [393.0, 942.0], [393.0, 943.0], [394.0, 943.0], [394.0, 944.0], [395.0, 944.0], [395.0, 946.0], [396.0, 946.0], [396.0, 947.0], [397.0, 947.0], [397.0, 948.0], [398.0, 948.0], [398.0, 949.0], [399.0, 949.0], [399.0, 950.0], [400.0, 950.0], [400.0, 952.0], [401.0, 952.0], [401.0, 959.0], [400.0, 959.0], [400.0, 961.0], [399.0, 961.0], [399.0, 963.0], [398.0, 963.0], [398.0, 964.0], [396.0, 964.0], [396.0, 965.0], [395.0, 965.0], [395.0, 966.0], [394.0, 966.0], [394.0, 968.0], [393.0, 968.0], [393.0, 969.0], [392.0, 969.0], [392.0, 972.0], [391.0, 972.0], [391.0, 975.0], [390.0, 975.0], [390.0, 977.0], [389.0, 977.0], [389.0, 978.0], [388.0, 978.0], [388.0, 979.0], [387.0, 979.0], [387.0, 980.0], [386.0, 980.0], [386.0, 981.0], [384.0, 981.0], [384.0, 982.0], [376.0, 982.0], [376.0, 983.0], [372.0, 983.0], [372.0, 984.0], [369.0, 984.0], [369.0, 985.0], [358.0, 985.0], [358.0, 986.0], [356.0, 986.0], [356.0, 987.0], [353.0, 987.0], [353.0, 988.0], [351.0, 988.0], [351.0, 989.0], [349.0, 989.0], [349.0, 990.0], [347.0, 990.0], [347.0, 991.0], [340.0, 991.0], [340.0, 990.0], [338.0, 990.0], [338.0, 989.0], [336.0, 989.0], [336.0, 988.0], [334.0, 988.0], [334.0, 987.0], [332.0, 987.0], [332.0, 986.0], [330.0, 986.0], [330.0, 985.0], [325.0, 985.0], [325.0, 984.0], [322.0, 984.0], [322.0, 983.0], [319.0, 983.0], [319.0, 982.0], [317.0, 982.0], [317.0, 983.0], [314.0, 983.0], [314.0, 984.0], [312.0, 984.0], [312.0, 985.0], [310.0, 985.0], [310.0, 986.0], [309.0, 986.0], [309.0, 988.0], [308.0, 988.0], [308.0, 990.0], [307.0, 990.0], [307.0, 992.0], [306.0, 992.0], [306.0, 994.0], [305.0, 994.0], [305.0, 995.0], [304.0, 995.0], [304.0, 996.0], [303.0, 996.0], [303.0, 998.0], [301.0, 998.0], [301.0, 999.0], [299.0, 999.0], [299.0, 1000.0], [290.0, 1000.0], [290.0, 999.0], [287.0, 999.0], [287.0, 998.0], [284.0, 998.0], [284.0, 997.0], [278.0, 997.0], [278.0, 996.0], [277.0, 996.0], [277.0, 997.0], [265.0, 997.0], [265.0, 996.0], [263.0, 996.0], [263.0, 995.0], [262.0, 995.0], [262.0, 994.0], [261.0, 994.0], [261.0, 993.0], [260.0, 993.0], [260.0, 991.0], [259.0, 991.0], [259.0, 990.0], [258.0, 990.0], [258.0, 989.0], [256.0, 989.0], [256.0, 988.0], [254.0, 988.0], [254.0, 987.0], [253.0, 987.0], [253.0, 986.0], [252.0, 986.0], [252.0, 985.0], [251.0, 985.0], [251.0, 983.0], [250.0, 983.0], [250.0, 981.0], [249.0, 981.0], [249.0, 978.0], [248.0, 978.0], [248.0, 976.0], [247.0, 976.0], [247.0, 975.0], [246.0, 975.0], [246.0, 974.0], [245.0, 974.0], [245.0, 972.0], [244.0, 972.0], [244.0, 969.0], [243.0, 969.0], [243.0, 966.0], [242.0, 966.0], [242.0, 965.0], [241.0, 965.0], [241.0, 964.0], [240.0, 964.0], [240.0, 962.0], [239.0, 962.0], [239.0, 958.0], [238.0, 958.0], [238.0, 954.0], [237.0, 954.0], [237.0, 952.0], [236.0, 952.0], [236.0, 949.0], [235.0, 949.0], [235.0, 948.0], [234.0, 948.0], [234.0, 947.0], [227.0, 947.0], [227.0, 948.0], [224.0, 948.0], [224.0, 947.0], [218.0, 947.0], [218.0, 948.0], [215.0, 948.0], [215.0, 949.0], [213.0, 949.0], [213.0, 950.0], [211.0, 950.0], [211.0, 951.0], [210.0, 951.0], [210.0, 952.0], [209.0, 952.0], [209.0, 956.0], [208.0, 956.0], [208.0, 960.0], [207.0, 960.0], [207.0, 963.0], [206.0, 963.0], [206.0, 964.0], [205.0, 964.0], [205.0, 967.0], [204.0, 967.0], [204.0, 970.0], [203.0, 970.0], [203.0, 971.0], [202.0, 971.0], [202.0, 972.0], [201.0, 972.0], [201.0, 973.0], [200.0, 973.0], [200.0, 975.0], [199.0, 975.0], [199.0, 976.0], [198.0, 976.0], [198.0, 978.0], [197.0, 978.0], [197.0, 989.0], [196.0, 989.0], [196.0, 991.0], [195.0, 991.0], [195.0, 993.0], [194.0, 993.0], [194.0, 994.0], [193.0, 994.0], [193.0, 995.0], [191.0, 995.0], [191.0, 996.0], [190.0, 996.0], [190.0, 997.0], [188.0, 997.0], [188.0, 998.0], [186.0, 998.0], [186.0, 999.0], [182.0, 999.0], [182.0, 1000.0], [179.0, 1000.0], [179.0, 1001.0], [177.0, 1001.0], [177.0, 1002.0], [175.0, 1002.0], [175.0, 1003.0], [173.0, 1003.0], [173.0, 1004.0], [172.0, 1004.0], [172.0, 1005.0], [170.0, 1005.0], [170.0, 1006.0], [169.0, 1006.0], [169.0, 1007.0], [168.0, 1007.0], [168.0, 1009.0], [167.0, 1009.0], [167.0, 1010.0], [166.0, 1010.0], [166.0, 1011.0], [165.0, 1011.0], [165.0, 1013.0], [164.0, 1013.0], [164.0, 1024.0], [469.0, 1024.0], [469.0, 1016.0], [468.0, 1016.0], [468.0, 1012.0], [467.0, 1012.0], [467.0, 1008.0], [466.0, 1008.0], [466.0, 1004.0], [465.0, 1004.0], [465.0, 997.0], [464.0, 997.0], [464.0, 995.0], [463.0, 995.0], [463.0, 994.0], [462.0, 994.0], [462.0, 993.0], [460.0, 993.0], [460.0, 992.0], [459.0, 992.0], [459.0, 991.0], [457.0, 991.0], [457.0, 990.0], [456.0, 990.0], [456.0, 989.0], [455.0, 989.0], [455.0, 987.0], [454.0, 987.0], [454.0, 984.0], [453.0, 984.0], [453.0, 980.0], [452.0, 980.0], [452.0, 978.0], [451.0, 978.0], [451.0, 977.0], [443.0, 977.0], [443.0, 976.0], [438.0, 976.0], [438.0, 975.0], [436.0, 975.0], [436.0, 974.0], [435.0, 974.0], [435.0, 973.0], [434.0, 973.0], [434.0, 972.0], [433.0, 972.0], [433.0, 971.0], [432.0, 971.0], [432.0, 970.0], [431.0, 970.0], [431.0, 969.0], [430.0, 969.0], [430.0, 968.0], [429.0, 968.0], [429.0, 966.0], [428.0, 966.0], [428.0, 952.0], [427.0, 952.0], [427.0, 950.0], [426.0, 950.0], [426.0, 949.0], [425.0, 949.0], [425.0, 948.0], [424.0, 948.0], [424.0, 947.0], [423.0, 947.0], [423.0, 946.0], [422.0, 946.0], [422.0, 945.0], [421.0, 945.0], [421.0, 942.0], [420.0, 942.0], [420.0, 941.0], [419.0, 941.0], [419.0, 939.0], [418.0, 939.0], [418.0, 937.0], [417.0, 937.0], [417.0, 935.0], [416.0, 935.0], [416.0, 932.0], [415.0, 932.0], [415.0, 930.0], [414.0, 930.0], [414.0, 929.0], [413.0, 929.0], [413.0, 927.0], [412.0, 927.0], [412.0, 926.0], [411.0, 926.0], [411.0, 925.0], [410.0, 925.0], [410.0, 924.0], [409.0, 924.0], [409.0, 923.0], [408.0, 923.0], [408.0, 921.0], [407.0, 921.0], [407.0, 920.0], [406.0, 920.0], [406.0, 919.0], [405.0, 919.0], [405.0, 918.0], [404.0, 918.0], [404.0, 917.0], [402.0, 917.0], [402.0, 916.0], [397.0, 916.0]]]}}, {"type": "Feature", "properties": {"class_id": 1, "class_name": "Tree"}, "geometry": {"type": "Polygon", "coordinates": [[[0.0, 0.0], [0.0, 877.0], [4.0, 877.0], [4.0, 876.0], [7.0, 876.0], [7.0, 877.0], [9.0, 877.0], [9.0, 878.0], [10.0, 878.0], [10.0, 879.0], [12.0, 879.0], [12.0, 880.0], [13.0, 880.0], [13.0, 881.0], [14.0, 881.0], [14.0, 884.0], [15.0, 884.0], [15.0, 885.0], [16.0, 885.0], [16.0, 887.0], [17.0, 887.0], [17.0, 890.0], [18.0, 890.0], [18.0, 895.0], [17.0, 895.0], [17.0, 894.0], [14.0, 894.0], [14.0, 896.0], [13.0, 896.0], [13.0, 897.0], [12.0, 897.0], [12.0, 898.0], [11.0, 898.0], [11.0, 899.0], [10.0, 899.0], [10.0, 900.0], [9.0, 900.0], [9.0, 901.0], [7.0, 901.0], [7.0, 902.0], [6.0, 902.0], [6.0, 901.0], [5.0, 901.0], [5.0, 900.0], [3.0, 900.0], [3.0, 899.0], [0.0, 899.0], [0.0, 1024.0], [136.0, 1024.0], [136.0, 1016.0], [135.0, 1016.0], [135.0, 1011.0], [134.0, 1011.0], [134.0, 1008.0], [133.0, 1008.0], [133.0, 1006.0], [132.0, 1006.0], [132.0, 1004.0], [131.0, 1004.0], [131.0, 1003.0], [130.0, 1003.0], [130.0, 1002.0], [129.0, 1002.0], [129.0, 1000.0], [128.0, 1000.0], [128.0, 998.0], [127.0, 998.0], [127.0, 995.0], [125.0, 995.0], [125.0, 996.0], [117.0, 996.0], [117.0, 997.0], [115.0, 997.0], [115.0, 998.0], [113.0, 998.0], [113.0, 999.0], [110.0, 999.0], [110.0, 1000.0], [106.0, 1000.0], [106.0, 1001.0], [104.0, 1001.0], [104.0, 1002.0], [102.0, 1002.0], [102.0, 1003.0], [100.0, 1003.0], [100.0, 1004.0], [97.0, 1004.0], [97.0, 1005.0], [93.0, 1005.0], [93.0, 1006.0], [86.0, 1006.0], [86.0, 1005.0], [85.0, 1005.0], [85.0, 1003.0], [84.0, 1003.0], [84.0, 1002.0], [83.0, 1002.0], [83.0, 1001.0], [82.0, 1001.0], [82.0, 999.0], [81.0, 999.0], [81.0, 998.0], [80.0, 998.0], [80.0, 997.0], [79.0, 997.0], [79.0, 996.0], [77.0, 996.0], [77.0, 995.0], [75.0, 995.0], [75.0, 994.0], [74.0, 994.0], [74.0, 993.0], [72.0, 993.0], [72.0, 992.0], [69.0, 992.0], [69.0, 991.0], [68.0, 991.0], [68.0, 990.0], [66.0, 990.0], [66.0, 989.0], [63.0, 989.0], [63.0, 988.0], [60.0, 988.0], [60.0, 987.0], [59.0, 987.0], [59.0, 986.0], [58.0, 986.0], [58.0, 985.0], [57.0, 985.0], [57.0, 984.0], [56.0, 984.0], [56.0, 983.0], [55.0, 983.0], [55.0, 981.0], [54.0, 981.0], [54.0, 980.0], [53.0, 980.0], [53.0, 978.0], [52.0, 978.0], [52.0, 977.0], [51.0, 977.0], [51.0, 976.0], [50.0, 976.0], [50.0, 975.0], [48.0, 975.0], [48.0, 973.0], [47.0, 973.0], [47.0, 972.0], [45.0, 972.0], [45.0, 971.0], [44.0, 971.0], [44.0, 970.0], [42.0, 970.0], [42.0, 969.0], [40.0, 969.0], [40.0, 968.0], [38.0, 968.0], [38.0, 967.0], [36.0, 967.0], [36.0, 966.0], [35.0, 966.0], [35.0, 965.0], [34.0, 965.0], [34.0, 964.0], [33.0, 964.0], [33.0, 963.0], [32.0, 963.0], [32.0, 962.0], [31.0, 962.0], [31.0, 961.0], [30.0, 961.0], [30.0, 960.0], [28.0, 960.0], [28.0, 959.0], [27.0, 959.0], [27.0, 958.0], [26.0, 958.0], [26.0, 957.0], [25.0, 957.0], [25.0, 955.0], [24.0, 955.0], [24.0, 952.0], [23.0, 952.0], [23.0, 949.0], [22.0, 949.0], [22.0, 946.0], [21.0, 946.0], [21.0, 945.0], [22.0, 945.0], [22.0, 941.0], [23.0, 941.0], [23.0, 939.0], [24.0, 939.0], [24.0, 938.0], [25.0, 938.0], [25.0, 937.0], [26.0, 937.0], [26.0, 936.0], [27.0, 936.0], [27.0, 935.0], [28.0, 935.0], [28.0, 932.0], [29.0, 932.0], [29.0, 930.0], [30.0, 930.0], [30.0, 928.0], [31.0, 928.0], [31.0, 926.0], [32.0, 926.0], [32.0, 925.0], [33.0, 925.0], [33.0, 924.0], [34.0, 924.0], [34.0, 923.0], [35.0, 923.0], [35.0, 912.0], [36.0, 912.0], [36.0, 911.0], [37.0, 911.0], [37.0, 910.0], [39.0, 910.0], [39.0, 908.0], [40.0, 908.0], [40.0, 906.0], [41.0, 906.0], [41.0, 899.0], [42.0, 899.0], [42.0, 897.0], [43.0, 897.0], [43.0, 896.0], [44.0, 896.0], [44.0, 895.0], [45.0, 895.0], [45.0, 894.0], [46.0, 894.0], [46.0, 892.0], [47.0, 892.0], [47.0, 891.0], [48.0, 891.0], [48.0, 887.0], [49.0, 887.0], [49.0, 882.0], [48.0, 882.0], [48.0, 879.0], [47.0, 879.0], [47.0, 876.0], [46.0, 876.0], [46.0, 872.0], [45.0, 872.0], [45.0, 867.0], [44.0, 867.0], [44.0, 866.0], [45.0, 866.0], [45.0, 863.0], [46.0, 863.0], [46.0, 862.0], [47.0, 862.0], [47.0, 861.0], [55.0, 861.0], [55.0, 860.0], [59.0, 860.0], [59.0, 861.0], [61.0, 861.0], [61.0, 862.0], [62.0, 862.0], [62.0, 863.0], [64.0, 863.0], [64.0, 864.0], [67.0, 864.0], [67.0, 865.0], [69.0, 865.0], [69.0, 866.0], [72.0, 866.0], [72.0, 865.0], [76.0, 865.0], [76.0, 864.0], [79.0, 864.0], [79.0, 863.0], [81.0, 863.0], [81.0, 862.0], [82.0, 862.0], [82.0, 863.0], [83.0, 863.0], [83.0, 867.0], [82.0, 867.0], [82.0, 868.0], [81.0, 868.0], [81.0, 871.0], [82.0, 871.0], [82.0, 872.0], [83.0, 872.0], [83.0, 874.0], [89.0, 874.0], [89.0, 871.0], [90.0, 871.0], [90.0, 869.0], [95.0, 869.0], [95.0, 870.0], [96.0, 870.0], [96.0, 872.0], [97.0, 872.0], [97.0, 873.0], [98.0, 873.0], [98.0, 874.0], [102.0, 874.0], [102.0, 875.0], [104.0, 875.0], [104.0, 876.0], [106.0, 876.0], [106.0, 877.0], [119.0, 877.0], [119.0, 878.0], [121.0, 878.0], [121.0, 879.0], [125.0, 879.0], [125.0, 880.0], [127.0, 880.0], [127.0, 881.0], [130.0, 881.0], [130.0, 882.0], [137.0, 882.0], [137.0, 883.0], [139.0, 883.0], [139.0, 884.0], [142.0, 884.0], [142.0, 885.0], [145.0, 885.0], [145.0, 886.0], [151.0, 886.0], [151.0, 885.0], [153.0, 885.0], [153.0, 884.0], [155.0, 884.0], [155.0, 883.0], [157.0, 883.0], [157.0, 882.0], [159.0, 882.0], [159.0, 883.0], [160.0, 883.0], [160.0, 884.0], [161.0, 884.0], [161.0, 885.0], [162.0, 885.0], [162.0, 886.0], [163.0, 886.0], [163.0, 885.0], [173.0, 885.0], [173.0, 886.0], [175.0, 886.0], [175.0, 887.0], [176.0, 887.0], [176.0, 888.0], [178.0, 888.0], [178.0, 889.0], [180.0, 889.0], [180.0, 890.0], [182.0, 890.0], [182.0, 891.0], [184.0, 891.0], [184.0, 892.0], [187.0, 892.0], [187.0, 893.0], [188.0, 893.0], [188.0, 894.0], [190.0, 894.0], [190.0, 895.0], [191.0, 895.0], [191.0, 897.0], [192.0, 897.0], [192.0, 898.0], [193.0, 898.0], [193.0, 900.0], [194.0, 900.0], [194.0, 901.0], [196.0, 901.0], [196.0, 902.0], [203.0, 902.0], [203.0, 901.0], [205.0, 901.0], [205.0, 900.0], [206.0, 900.0], [206.0, 898.0], [210.0, 898.0], [210.0, 899.0], [208.0, 899.0], [208.0, 905.0], [209.0, 905.0], [209.0, 907.0], [211.0, 907.0], [211.0, 906.0], [213.0, 906.0], [213.0, 905.0], [216.0, 905.0], [216.0, 904.0], [217.0, 904.0], [217.0, 903.0], [219.0, 903.0], [219.0, 906.0], [220.0, 906.0], [220.0, 908.0], [221.0, 908.0], [221.0, 909.0], [222.0, 909.0], [222.0, 910.0], [223.0, 910.0], [223.0, 909.0], [224.0, 909.0], [224.0, 908.0], [226.0, 908.0], [226.0, 907.0], [228.0, 907.0], [228.0, 906.0], [232.0, 906.0], [232.0, 907.0], [240.0, 907.0], [240.0, 906.0], [241.0, 906.0], [241.0, 905.0], [242.0, 905.0], [242.0, 904.0], [243.0, 904.0], [243.0, 905.0], [244.0, 905.0], [244.0, 906.0], [247.0, 906.0], [247.0, 907.0], [249.0, 907.0], [249.0, 910.0], [250.0, 910.0], [250.0, 912.0], [255.0, 912.0], [255.0, 911.0], [256.0, 911.0], [256.0, 910.0], [257.0, 910.0], [257.0, 909.0], [258.0, 909.0], [258.0, 907.0], [259.0, 907.0], [259.0, 905.0], [260.0, 905.0], [260.0, 903.0], [261.0, 903.0], [261.0, 901.0], [262.0, 901.0], [262.0, 900.0], [267.0, 900.0], [267.0, 901.0], [269.0, 901.0], [269.0, 902.0], [272.0, 902.0], [272.0, 903.0], [274.0, 903.0], [274.0, 904.0], [276.0, 904.0], [276.0, 905.0], [277.0, 905.0], [277.0, 906.0], [279.0, 906.0], [279.0, 907.0], [284.0, 907.0], [284.0, 908.0], [291.0, 908.0], [291.0, 907.0], [293.0, 907.0], [293.0, 906.0], [295.0, 906.0], [295.0, 905.0], [297.0, 905.0], [297.0, 904.0], [298.0, 904.0], [298.0, 903.0], [300.0, 903.0], [300.0, 902.0], [301.0, 902.0], [301.0, 901.0], [302.0, 901.0], [302.0, 900.0], [304.0, 900.0], [304.0, 899.0], [305.0, 899.0], [305.0, 898.0], [306.0, 898.0], [306.0, 897.0], [308.0, 897.0], [308.0, 896.0], [311.0, 896.0], [311.0, 895.0], [316.0, 895.0], [316.0, 894.0], [318.0, 894.0], [318.0, 893.0], [320.0, 893.0], [320.0, 892.0], [323.0, 892.0], [323.0, 891.0], [326.0, 891.0], [326.0, 890.0], [327.0, 890.0], [327.0, 889.0], [328.0, 889.0], [328.0, 888.0], [329.0, 888.0], [329.0, 887.0], [331.0, 887.0], [331.0, 886.0], [333.0, 886.0], [333.0, 882.0], [334.0, 882.0], [334.0, 881.0], [335.0, 881.0], [335.0, 882.0], [338.0, 882.0], [338.0, 883.0], [352.0, 883.0], [352.0, 884.0], [353.0, 884.0], [353.0, 885.0], [354.0, 885.0], [354.0, 886.0], [356.0, 886.0], [356.0, 887.0], [361.0, 887.0], [361.0, 886.0], [370.0, 886.0], [370.0, 887.0], [372.0, 887.0], [372.0, 888.0], [380.0, 888.0], [380.0, 887.0], [384.0, 887.0], [384.0, 886.0], [386.0, 886.0], [386.0, 885.0], [388.0, 885.0], [388.0, 884.0], [389.0, 884.0], [389.0, 883.0], [390.0, 883.0], [390.0, 882.0], [391.0, 882.0], [391.0, 881.0], [392.0, 881.0], [392.0, 880.0], [393.0, 880.0], [393.0, 879.0], [394.0, 879.0], [394.0, 878.0], [395.0, 878.0], [395.0, 877.0], [397.0, 877.0], [397.0, 876.0], [400.0, 876.0], [400.0, 877.0], [408.0, 877.0], [408.0, 878.0], [410.0, 878.0], [410.0, 883.0], [415.0, 883.0], [415.0, 881.0], [416.0, 881.0], [416.0, 877.0], [417.0, 877.0], [417.0, 873.0], [418.0, 873.0], [418.0, 871.0], [419.0, 871.0], [419.0, 869.0], [420.0, 869.0], [420.0, 868.0], [421.0, 868.0], [421.0, 866.0], [422.0, 866.0], [422.0, 865.0], [423.0, 865.0], [423.0, 863.0], [424.0, 863.0], [424.0, 862.0], [425.0, 862.0], [425.0, 861.0], [429.0, 861.0], [429.0, 860.0], [434.0, 860.0], [434.0, 859.0], [435.0, 859.0], [435.0, 858.0], [437.0, 858.0], [437.0, 857.0], [439.0, 857.0], [439.0, 856.0], [440.0, 856.0], [440.0, 855.0], [441.0, 855.0], [441.0, 854.0], [443.0, 854.0], [443.0, 853.0], [444.0, 853.0], [444.0, 852.0], [446.0, 852.0], [446.0, 851.0], [448.0, 851.0], [448.0, 850.0], [450.0, 850.0], [450.0, 849.0], [453.0, 849.0], [453.0, 848.0], [454.0, 848.0], [454.0, 847.0], [455.0, 847.0], [455.0, 846.0], [457.0, 846.0], [457.0, 845.0], [460.0, 845.0], [460.0, 844.0], [463.0, 844.0], [463.0, 843.0], [466.0, 843.0], [466.0, 842.0], [469.0, 842.0], [469.0, 841.0], [471.0, 841.0], [471.0, 842.0], [476.0, 842.0], [476.0, 843.0], [478.0, 843.0], [478.0, 842.0], [480.0, 842.0], [480.0, 841.0], [481.0, 841.0], [481.0, 840.0], [487.0, 840.0], [487.0, 841.0], [488.0, 841.0], [488.0, 842.0], [491.0, 842.0], [491.0, 843.0], [507.0, 843.0], [507.0, 844.0], [508.0, 844.0], [508.0, 845.0], [509.0, 845.0], [509.0, 846.0], [510.0, 846.0], [510.0, 847.0], [511.0, 847.0], [511.0, 848.0], [512.0, 848.0], [512.0, 849.0], [514.0, 849.0], [514.0, 850.0], [516.0, 850.0], [516.0, 851.0], [518.0, 851.0], [518.0, 852.0], [520.0, 852.0], [520.0, 853.0], [521.0, 853.0], [521.0, 854.0], [525.0, 854.0], [525.0, 853.0], [527.0, 853.0], [527.0, 854.0], [531.0, 854.0], [531.0, 853.0], [532.0, 853.0], [532.0, 852.0], [533.0, 852.0], [533.0, 851.0], [535.0, 851.0], [535.0, 852.0], [537.0, 852.0], [537.0, 853.0], [538.0, 853.0], [538.0, 854.0], [539.0, 854.0], [539.0, 856.0], [540.0, 856.0], [540.0, 857.0], [541.0, 857.0], [541.0, 858.0], [543.0, 858.0], [543.0, 859.0], [544.0, 859.0], [544.0, 861.0], [545.0, 861.0], [545.0, 863.0], [548.0, 863.0], [548.0, 864.0], [550.0, 864.0], [550.0, 865.0], [551.0, 865.0], [551.0, 867.0], [552.0, 867.0], [552.0, 870.0], [553.0, 870.0], [553.0, 873.0], [552.0, 873.0], [552.0, 874.0], [554.0, 874.0], [554.0, 882.0], [553.0, 882.0], [553.0, 883.0], [552.0, 883.0], [552.0, 884.0], [551.0, 884.0], [551.0, 885.0], [550.0, 885.0], [550.0, 886.0], [549.0, 886.0], [549.0, 887.0], [548.0, 887.0], [548.0, 889.0], [547.0, 889.0], [547.0, 890.0], [546.0, 890.0], [546.0, 893.0], [545.0, 893.0], [545.0, 894.0], [546.0, 894.0], [546.0, 896.0], [547.0, 896.0], [547.0, 897.0], [548.0, 897.0], [548.0, 899.0], [549.0, 899.0], [549.0, 901.0], [550.0, 901.0], [550.0, 903.0], [552.0, 903.0], [552.0, 904.0], [553.0, 904.0], [553.0, 905.0], [554.0, 905.0], [554.0, 906.0], [555.0, 906.0], [555.0, 907.0], [556.0, 907.0], [556.0, 908.0], [557.0, 908.0], [557.0, 911.0], [558.0, 911.0], [558.0, 933.0], [557.0, 933.0], [557.0, 936.0], [556.0, 936.0], [556.0, 938.0], [554.0, 938.0], [554.0, 939.0], [553.0, 939.0], [553.0, 940.0], [552.0, 940.0], [552.0, 941.0], [550.0, 941.0], [550.0, 943.0], [549.0, 943.0], [549.0, 951.0], [548.0, 951.0], [548.0, 954.0], [547.0, 954.0], [547.0, 956.0], [546.0, 956.0], [546.0, 958.0], [545.0, 958.0], [545.0, 960.0], [544.0, 960.0], [544.0, 961.0], [543.0, 961.0], [543.0, 962.0], [542.0, 962.0], [542.0, 963.0], [541.0, 963.0], [541.0, 964.0], [540.0, 964.0], [540.0, 965.0], [539.0, 965.0], [539.0, 966.0], [536.0, 966.0], [536.0, 967.0], [532.0, 967.0], [532.0, 968.0], [527.0, 968.0], [527.0, 969.0], [525.0, 969.0], [525.0, 970.0], [524.0, 970.0], [524.0, 971.0], [523.0, 971.0], [523.0, 972.0], [522.0, 972.0], [522.0, 974.0], [521.0, 974.0], [521.0, 976.0], [520.0, 976.0], [520.0, 978.0], [519.0, 978.0], [519.0, 980.0], [518.0, 980.0], [518.0, 982.0], [517.0, 982.0], [517.0, 984.0], [516.0, 984.0], [516.0, 986.0], [515.0, 986.0], [515.0, 988.0], [514.0, 988.0], [514.0, 990.0], [513.0, 990.0], [513.0, 997.0], [514.0, 997.0], [514.0, 999.0], [515.0, 999.0], [515.0, 1001.0], [516.0, 1001.0], [516.0, 1003.0], [517.0, 1003.0], [517.0, 1005.0], [518.0, 1005.0], [518.0, 1006.0], [519.0, 1006.0], [519.0, 1008.0], [520.0, 1008.0], [520.0, 1010.0], [521.0, 1010.0], [521.0, 1011.0], [522.0, 1011.0], [522.0, 1013.0], [523.0, 1013.0], [523.0, 1015.0], [522.0, 1015.0], [522.0, 1016.0], [521.0, 1016.0], [521.0, 1018.0], [520.0, 1018.0], [520.0, 1024.0], [845.0, 1024.0], [845.0, 1019.0], [846.0, 1019.0], [846.0, 1016.0], [847.0, 1016.0], [847.0, 1014.0], [848.0, 1014.0], [848.0, 1012.0], [849.0, 1012.0], [849.0, 1011.0], [850.0, 1011.0], [850.0, 1010.0], [851.0, 1010.0], [851.0, 1008.0], [852.0, 1008.0], [852.0, 1006.0], [853.0, 1006.0], [853.0, 1005.0], [854.0, 1005.0], [854.0, 1003.0], [855.0, 1003.0], [855.0, 1002.0], [856.0, 1002.0], [856.0, 1000.0], [857.0, 1000.0], [857.0, 999.0], [858.0, 999.0], [858.0, 997.0], [859.0, 997.0], [859.0, 995.0], [860.0, 995.0], [860.0, 991.0], [861.0, 991.0], [861.0, 985.0], [862.0, 985.0], [862.0, 984.0], [864.0, 984.0], [864.0, 983.0], [865.0, 983.0], [865.0, 982.0], [866.0, 982.0], [866.0, 981.0], [867.0, 981.0], [867.0, 979.0], [868.0, 979.0], [868.0, 978.0], [869.0, 978.0], [869.0, 976.0], [870.0, 976.0], [870.0, 972.0], [871.0, 972.0], [871.0, 970.0], [872.0, 970.0], [872.0, 968.0], [873.0, 968.0], [873.0, 966.0], [874.0, 966.0], [874.0, 961.0], [875.0, 961.0], [875.0, 958.0], [876.0, 958.0], [876.0, 955.0], [877.0, 955.0], [877.0, 953.0], [878.0, 953.0], [878.0, 950.0], [879.0, 950.0], [879.0, 949.0], [880.0, 949.0], [880.0, 948.0], [881.0, 948.0], [881.0, 946.0], [882.0, 946.0], [882.0, 944.0], [883.0, 944.0], [883.0, 943.0], [884.0, 943.0], [884.0, 941.0], [885.0, 941.0], [885.0, 940.0], [886.0, 940.0], [886.0, 939.0], [887.0, 939.0], [887.0, 937.0], [888.0, 937.0], [888.0, 935.0], [889.0, 935.0], [889.0, 934.0], [890.0, 934.0], [890.0, 933.0], [891.0, 933.0], [891.0, 932.0], [892.0, 932.0], [892.0, 930.0], [893.0, 930.0], [893.0, 929.0], [894.0, 929.0], [894.0, 928.0], [895.0, 928.0], [895.0, 926.0], [896.0, 926.0], [896.0, 924.0], [897.0, 924.0], [897.0, 922.0], [898.0, 922.0], [898.0, 920.0], [899.0, 920.0], [899.0, 918.0], [900.0, 918.0], [900.0, 916.0], [901.0, 916.0], [901.0, 913.0], [902.0, 913.0], [902.0, 911.0], [903.0, 911.0], [903.0, 909.0], [904.0, 909.0], [904.0, 908.0], [905.0, 908.0], [905.0, 907.0], [906.0, 907.0], [906.0, 906.0], [907.0, 906.0], [907.0, 904.0], [908.0, 904.0], [908.0, 902.0], [909.0, 902.0], [909.0, 901.0], [911.0, 901.0], [911.0, 900.0], [913.0, 900.0], [913.0, 899.0], [914.0, 899.0], [914.0, 898.0], [916.0, 898.0], [916.0, 897.0], [918.0, 897.0], [918.0, 896.0], [919.0, 896.0], [919.0, 895.0], [920.0, 895.0], [920.0, 894.0], [921.0, 894.0], [921.0, 893.0], [923.0, 893.0], [923.0, 892.0], [926.0, 892.0], [926.0, 891.0], [928.0, 891.0], [928.0, 890.0], [930.0, 890.0], [930.0, 889.0], [933.0, 889.0], [933.0, 888.0], [936.0, 888.0], [936.0, 887.0], [938.0, 887.0], [938.0, 886.0], [942.0, 886.0], [942.0, 885.0], [949.0, 885.0], [949.0, 884.0], [952.0, 884.0], [952.0, 883.0], [954.0, 883.0], [954.0, 882.0], [955.0, 882.0], [955.0, 881.0], [957.0, 881.0], [957.0, 880.0], [971.0, 880.0], [971.0, 881.0], [979.0, 881.0], [979.0, 880.0], [981.0, 880.0], [981.0, 879.0], [982.0, 879.0], [982.0, 878.0], [983.0, 878.0], [983.0, 876.0], [984.0, 876.0], [984.0, 875.0], [988.0, 875.0], [988.0, 874.0], [993.0, 874.0], [993.0, 875.0], [997.0, 875.0], [997.0, 874.0], [1000.0, 874.0], [1000.0, 873.0], [1002.0, 873.0], [1002.0, 872.0], [1004.0, 872.0], [1004.0, 871.0], [1005.0, 871.0], [1005.0, 870.0], [1006.0, 870.0], [1006.0, 868.0], [1007.0, 868.0], [1007.0, 867.0], [1008.0, 867.0], [1008.0, 865.0], [1009.0, 865.0], [1009.0, 862.0], [1010.0, 862.0], [1010.0, 861.0], [1024.0, 861.0], [1024.0, 751.0], [1022.0, 751.0], [1022.0, 752.0], [1021.0, 752.0], [1021.0, 753.0], [1020.0, 753.0], [1020.0, 754.0], [1019.0, 754.0], [1019.0, 755.0], [1014.0, 755.0], [1014.0, 754.0], [1009.0, 754.0], [1009.0, 753.0], [1007.0, 753.0], [1007.0, 752.0], [1005.0, 752.0], [1005.0, 751.0], [1004.0, 751.0], [1004.0, 750.0], [1003.0, 750.0], [1003.0, 749.0], [1001.0, 749.0], [1001.0, 748.0], [1000.0, 748.0], [1000.0, 747.0], [999.0, 747.0], [999.0, 746.0], [998.0, 746.0], [998.0, 745.0], [997.0, 745.0], [997.0, 744.0], [996.0, 744.0], [996.0, 743.0], [995.0, 743.0], [995.0, 742.0], [994.0, 742.0], [994.0, 741.0], [993.0, 741.0], [993.0, 740.0], [992.0, 740.0], [992.0, 739.0], [990.0, 739.0], [990.0, 738.0], [989.0, 738.0], [989.0, 737.0], [987.0, 737.0], [987.0, 736.0], [986.0, 736.0], [986.0, 735.0], [977.0, 735.0], [977.0, 734.0], [975.0, 734.0], [975.0, 733.0], [974.0, 733.0], [974.0, 732.0], [973.0, 732.0], [973.0, 731.0], [972.0, 731.0], [972.0, 730.0], [971.0, 730.0], [971.0, 729.0], [970.0, 729.0], [970.0, 728.0], [965.0, 728.0], [965.0, 727.0], [960.0, 727.0], [960.0, 726.0], [959.0, 726.0], [959.0, 722.0], [958.0, 722.0], [958.0, 720.0], [957.0, 720.0], [957.0, 719.0], [956.0, 719.0], [956.0, 718.0], [954.0, 718.0], [954.0, 717.0], [951.0, 717.0], [951.0, 716.0], [949.0, 716.0], [949.0, 715.0], [948.0, 715.0], [948.0, 714.0], [947.0, 714.0], [947.0, 713.0], [946.0, 713.0], [946.0, 712.0], [944.0, 712.0], [944.0, 711.0], [943.0, 711.0], [943.0, 710.0], [942.0, 710.0], [942.0, 709.0], [941.0, 709.0], [941.0, 705.0], [942.0, 705.0], [942.0, 703.0], [943.0, 703.0], [943.0, 701.0], [944.0, 701.0], [944.0, 698.0], [945.0, 698.0], [945.0, 693.0], [946.0, 693.0], [946.0, 691.0], [947.0, 691.0], [947.0, 687.0], [948.0, 687.0], [948.0, 686.0], [949.0, 686.0], [949.0, 684.0], [950.0, 684.0], [950.0, 682.0], [951.0, 682.0], [951.0, 680.0], [952.0, 680.0], [952.0, 678.0], [953.0, 678.0], [953.0, 677.0], [954.0, 677.0], [954.0, 676.0], [955.0, 676.0], [955.0, 675.0], [956.0, 675.0], [956.0, 674.0], [958.0, 674.0], [958.0, 673.0], [966.0, 673.0], [966.0, 672.0], [967.0, 672.0], [967.0, 671.0], [968.0, 671.0], [968.0, 670.0], [969.0, 670.0], [969.0, 669.0], [970.0, 669.0], [970.0, 668.0], [971.0, 668.0], [971.0, 667.0], [972.0, 667.0], [972.0, 666.0], [973.0, 666.0], [973.0, 665.0], [976.0, 665.0], [976.0, 664.0], [978.0, 664.0], [978.0, 663.0], [982.0, 663.0], [982.0, 662.0], [983.0, 662.0], [983.0, 661.0], [984.0, 661.0], [984.0, 660.0], [985.0, 660.0], [985.0, 659.0], [986.0, 659.0], [986.0, 658.0], [987.0, 658.0], [987.0, 654.0], [988.0, 654.0], [988.0, 652.0], [989.0, 652.0], [989.0, 651.0], [990.0, 651.0], [990.0, 649.0], [986.0, 649.0], [986.0, 648.0], [985.0, 648.0], [985.0, 647.0], [984.0, 647.0], [984.0, 645.0], [983.0, 645.0], [983.0, 642.0], [982.0, 642.0], [982.0, 641.0], [983.0, 641.0], [983.0, 637.0], [982.0, 637.0], [982.0, 636.0], [981.0, 636.0], [981.0, 635.0], [970.0, 635.0], [970.0, 636.0], [967.0, 636.0], [967.0, 637.0], [965.0, 637.0], [965.0, 638.0], [962.0, 638.0], [962.0, 640.0], [961.0, 640.0], [961.0, 643.0], [960.0, 643.0], [960.0, 647.0], [959.0, 647.0], [959.0, 650.0], [958.0, 650.0], [958.0, 652.0], [957.0, 652.0], [957.0, 653.0], [956.0, 653.0], [956.0, 654.0], [955.0, 654.0], [955.0, 655.0], [953.0, 655.0], [953.0, 656.0], [952.0, 656.0], [952.0, 657.0], [950.0, 657.0], [950.0, 658.0], [949.0, 658.0], [949.0, 660.0], [948.0, 660.0], [948.0, 661.0], [947.0, 661.0], [947.0, 663.0], [946.0, 663.0], [946.0, 665.0], [945.0, 665.0], [945.0, 669.0], [944.0, 669.0], [944.0, 671.0], [943.0, 671.0], [943.0, 672.0], [942.0, 672.0], [942.0, 673.0], [941.0, 673.0], [941.0, 675.0], [940.0, 675.0], [940.0, 678.0], [939.0, 678.0], [939.0, 681.0], [938.0, 681.0], [938.0, 682.0], [937.0, 682.0], [937.0, 683.0], [936.0, 683.0], [936.0, 684.0], [935.0, 684.0], [935.0, 685.0], [933.0, 685.0], [933.0, 689.0], [932.0, 689.0], [932.0, 691.0], [931.0, 691.0], [931.0, 692.0], [930.0, 692.0], [930.0, 693.0], [929.0, 693.0], [929.0, 694.0], [928.0, 694.0], [928.0, 698.0], [927.0, 698.0], [927.0, 699.0], [926.0, 699.0], [926.0, 700.0], [917.0, 700.0], [917.0, 699.0], [916.0, 699.0], [916.0, 698.0], [915.0, 698.0], [915.0, 697.0], [914.0, 697.0], [914.0, 696.0], [913.0, 696.0], [913.0, 695.0], [911.0, 695.0], [911.0, 692.0], [912.0, 692.0], [912.0, 691.0], [913.0, 691.0], [913.0, 690.0], [914.0, 690.0], [914.0, 689.0], [915.0, 689.0], [915.0, 687.0], [916.0, 687.0], [916.0, 685.0], [915.0, 685.0], [915.0, 683.0], [912.0, 683.0], [912.0, 684.0], [909.0, 684.0], [909.0, 685.0], [908.0, 685.0], [908.0, 686.0], [907.0, 686.0], [907.0, 687.0], [908.0, 687.0], [908.0, 691.0], [905.0, 691.0], [905.0, 692.0], [902.0, 692.0], [902.0, 693.0], [899.0, 693.0], [899.0, 694.0], [892.0, 694.0], [892.0, 693.0], [890.0, 693.0], [890.0, 692.0], [887.0, 692.0], [887.0, 691.0], [886.0, 691.0], [886.0, 690.0], [885.0, 690.0], [885.0, 688.0], [884.0, 688.0], [884.0, 687.0], [883.0, 687.0], [883.0, 686.0], [882.0, 686.0], [882.0, 685.0], [876.0, 685.0], [876.0, 686.0], [875.0, 686.0], [875.0, 687.0], [874.0, 687.0], [874.0, 688.0], [872.0, 688.0], [872.0, 689.0], [871.0, 689.0], [871.0, 690.0], [866.0, 690.0], [866.0, 689.0], [864.0, 689.0], [864.0, 688.0], [863.0, 688.0], [863.0, 685.0], [862.0, 685.0], [862.0, 683.0], [861.0, 683.0], [861.0, 681.0], [862.0, 681.0], [862.0, 679.0], [863.0, 679.0], [863.0, 676.0], [862.0, 676.0], [862.0, 674.0], [857.0, 674.0], [857.0, 675.0], [854.0, 675.0], [854.0, 676.0], [849.0, 676.0], [849.0, 675.0], [848.0, 675.0], [848.0, 671.0], [847.0, 671.0], [847.0, 670.0], [851.0, 670.0], [851.0, 669.0], [853.0, 669.0], [853.0, 668.0], [855.0, 668.0], [855.0, 667.0], [857.0, 667.0], [857.0, 666.0], [858.0, 666.0], [858.0, 665.0], [859.0, 665.0], [859.0, 662.0], [860.0, 662.0], [860.0, 661.0], [859.0, 661.0], [859.0, 660.0], [857.0, 660.0], [857.0, 655.0], [858.0, 655.0], [858.0, 654.0], [859.0, 654.0], [859.0, 653.0], [861.0, 653.0], [861.0, 651.0], [862.0, 651.0], [862.0, 652.0], [863.0, 652.0], [863.0, 655.0], [862.0, 655.0], [862.0, 657.0], [861.0, 657.0], [861.0, 659.0], [862.0, 659.0], [862.0, 661.0], [863.0, 661.0], [863.0, 662.0], [864.0, 662.0], [864.0, 665.0], [865.0, 665.0], [865.0, 667.0], [867.0, 667.0], [867.0, 668.0], [869.0, 668.0], [869.0, 669.0], [873.0, 669.0], [873.0, 668.0], [875.0, 668.0], [875.0, 669.0], [882.0, 669.0], [882.0, 668.0], [883.0, 668.0], [883.0, 667.0], [884.0, 667.0], [884.0, 665.0], [885.0, 665.0], [885.0, 664.0], [886.0, 664.0], [886.0, 662.0], [887.0, 662.0], [887.0, 656.0], [888.0, 656.0], [888.0, 655.0], [890.0, 655.0], [890.0, 654.0], [891.0, 654.0], [891.0, 652.0], [892.0, 652.0], [892.0, 650.0], [893.0, 650.0], [893.0, 649.0], [894.0, 649.0], [894.0, 648.0], [895.0, 648.0], [895.0, 646.0], [896.0, 646.0], [896.0, 644.0], [897.0, 644.0], [897.0, 643.0], [898.0, 643.0], [898.0, 642.0], [899.0, 642.0], [899.0, 641.0], [900.0, 641.0], [900.0, 639.0], [901.0, 639.0], [901.0, 637.0], [902.0, 637.0], [902.0, 631.0], [903.0, 631.0], [903.0, 629.0], [905.0, 629.0], [905.0, 628.0], [907.0, 628.0], [907.0, 629.0], [909.0, 629.0], [909.0, 630.0], [910.0, 630.0], [910.0, 636.0], [911.0, 636.0], [911.0, 635.0], [912.0, 635.0], [912.0, 634.0], [914.0, 634.0], [914.0, 635.0], [915.0, 635.0], [915.0, 639.0], [916.0, 639.0], [916.0, 641.0], [918.0, 641.0], [918.0, 642.0], [920.0, 642.0], [920.0, 644.0], [921.0, 644.0], [921.0, 645.0], [922.0, 645.0], [922.0, 644.0], [923.0, 644.0], [923.0, 641.0], [924.0, 641.0], [924.0, 639.0], [925.0, 639.0], [925.0, 636.0], [926.0, 636.0], [926.0, 634.0], [927.0, 634.0], [927.0, 632.0], [928.0, 632.0], [928.0, 631.0], [929.0, 631.0], [929.0, 630.0], [930.0, 630.0], [930.0, 629.0], [931.0, 629.0], [931.0, 627.0], [932.0, 627.0], [932.0, 626.0], [934.0, 626.0], [934.0, 625.0], [935.0, 625.0], [935.0, 622.0], [936.0, 622.0], [936.0, 620.0], [937.0, 620.0], [937.0, 618.0], [943.0, 618.0], [943.0, 617.0], [944.0, 617.0], [944.0, 616.0], [946.0, 616.0], [946.0, 615.0], [950.0, 615.0], [950.0, 614.0], [951.0, 614.0], [951.0, 613.0], [955.0, 613.0], [955.0, 614.0], [956.0, 614.0], [956.0, 615.0], [959.0, 615.0], [959.0, 614.0], [960.0, 614.0], [960.0, 613.0], [962.0, 613.0], [962.0, 612.0], [963.0, 612.0], [963.0, 611.0], [964.0, 611.0], [964.0, 610.0], [965.0, 610.0], [965.0, 605.0], [966.0, 605.0], [966.0, 603.0], [967.0, 603.0], [967.0, 602.0], [968.0, 602.0], [968.0, 601.0], [969.0, 601.0], [969.0, 600.0], [970.0, 600.0], [970.0, 599.0], [972.0, 599.0], [972.0, 597.0], [974.0, 597.0], [974.0, 596.0], [975.0, 596.0], [975.0, 594.0], [976.0, 594.0], [976.0, 593.0], [977.0, 593.0], [977.0, 592.0], [978.0, 592.0], [978.0, 591.0], [979.0, 591.0], [979.0, 589.0], [980.0, 589.0], [980.0, 588.0], [981.0, 588.0], [981.0, 587.0], [982.0, 587.0], [982.0, 586.0], [983.0, 586.0], [983.0, 584.0], [984.0, 584.0], [984.0, 583.0], [985.0, 583.0], [985.0, 582.0], [986.0, 582.0], [986.0, 581.0], [987.0, 581.0], [987.0, 580.0], [988.0, 580.0], [988.0, 579.0], [989.0, 579.0], [989.0, 578.0], [990.0, 578.0], [990.0, 577.0], [991.0, 577.0], [991.0, 575.0], [992.0, 575.0], [992.0, 573.0], [993.0, 573.0], [993.0, 572.0], [994.0, 572.0], [994.0, 571.0], [995.0, 571.0], [995.0, 568.0], [996.0, 568.0], [996.0, 565.0], [997.0, 565.0], [997.0, 563.0], [998.0, 563.0], [998.0, 561.0], [999.0, 561.0], [999.0, 558.0], [1000.0, 558.0], [1000.0, 555.0], [1001.0, 555.0], [1001.0, 552.0], [1000.0, 552.0], [1000.0, 550.0], [999.0, 550.0], [999.0, 548.0], [998.0, 548.0], [998.0, 545.0], [999.0, 545.0], [999.0, 544.0], [1000.0, 544.0], [1000.0, 543.0], [1001.0, 543.0], [1001.0, 541.0], [1002.0, 541.0], [1002.0, 539.0], [1003.0, 539.0], [1003.0, 538.0], [1004.0, 538.0], [1004.0, 537.0], [1005.0, 537.0], [1005.0, 535.0], [1006.0, 535.0], [1006.0, 533.0], [1007.0, 533.0], [1007.0, 532.0], [1008.0, 532.0], [1008.0, 530.0], [1009.0, 530.0], [1009.0, 529.0], [1017.0, 529.0], [1017.0, 528.0], [1020.0, 528.0], [1020.0, 527.0], [1021.0, 527.0], [1021.0, 526.0], [1024.0, 526.0], [1024.0, 0.0], [0.0, 0.0]]]}}, {"type": "Feature", "properties": {"class_id": 0, "class_name": "Farmland"}, "geometry": {"type": "Polygon", "coordinates": [[[1010.0, 861.0], [1010.0, 862.0], [1009.0, 862.0], [1009.0, 865.0], [1008.0, 865.0], [1008.0, 867.0], [1007.0, 867.0], [1007.0, 868.0], [1006.0, 868.0], [1006.0, 870.0], [1005.0, 870.0], [1005.0, 871.0], [1004.0, 871.0], [1004.0, 872.0], [1002.0, 872.0], [1002.0, 873.0], [1000.0, 873.0], [1000.0, 874.0], [997.0, 874.0], [997.0, 875.0], [993.0, 875.0], [993.0, 874.0], [988.0, 874.0], [988.0, 875.0], [984.0, 875.0], [984.0, 876.0], [983.0, 876.0], [983.0, 878.0], [982.0, 878.0], [982.0, 879.0], [981.0, 879.0], [981.0, 880.0], [979.0, 880.0], [979.0, 881.0], [971.0, 881.0], [971.0, 880.0], [957.0, 880.0], [957.0, 881.0], [955.0, 881.0], [955.0, 882.0], [954.0, 882.0], [954.0, 883.0], [952.0, 883.0], [952.0, 884.0], [949.0, 884.0], [949.0, 885.0], [942.0, 885.0], [942.0, 886.0], [938.0, 886.0], [938.0, 887.0], [936.0, 887.0], [936.0, 888.0], [933.0, 888.0], [933.0, 889.0], [930.0, 889.0], [930.0, 890.0], [928.0, 890.0], [928.0, 891.0], [926.0, 891.0], [926.0, 892.0], [923.0, 892.0], [923.0, 893.0], [921.0, 893.0], [921.0, 894.0], [920.0, 894.0], [920.0, 895.0], [919.0, 895.0], [919.0, 896.0], [918.0, 896.0], [918.0, 897.0], [916.0, 897.0], [916.0, 898.0], [914.0, 898.0], [914.0, 899.0], [913.0, 899.0], [913.0, 900.0], [911.0, 900.0], [911.0, 901.0], [909.0, 901.0], [909.0, 902.0], [908.0, 902.0], [908.0, 904.0], [907.0, 904.0], [907.0, 906.0], [906.0, 906.0], [906.0, 907.0], [905.0, 907.0], [905.0, 908.0], [904.0, 908.0], [904.0, 909.0], [903.0, 909.0], [903.0, 911.0], [902.0, 911.0], [902.0, 913.0], [901.0, 913.0], [901.0, 916.0], [900.0, 916.0], [900.0, 918.0], [899.0, 918.0], [899.0, 920.0], [898.0, 920.0], [898.0, 922.0], [897.0, 922.0], [897.0, 924.0], [896.0, 924.0], [896.0, 926.0], [895.0, 926.0], [895.0, 928.0], [894.0, 928.0], [894.0, 929.0], [893.0, 929.0], [893.0, 930.0], [892.0, 930.0], [892.0, 932.0], [891.0, 932.0], [891.0, 933.0], [890.0, 933.0], [890.0, 934.0], [889.0, 934.0], [889.0, 935.0], [888.0, 935.0], [888.0, 937.0], [887.0, 937.0], [887.0, 939.0], [886.0, 939.0], [886.0, 940.0], [885.0, 940.0], [885.0, 941.0], [884.0, 941.0], [884.0, 943.0], [883.0, 943.0], [883.0, 944.0], [882.0, 944.0], [882.0, 946.0], [881.0, 946.0], [881.0, 948.0], [880.0, 948.0], [880.0, 949.0], [879.0, 949.0], [879.0, 950.0], [878.0, 950.0], [878.0, 953.0], [877.0, 953.0], [877.0, 955.0], [876.0, 955.0], [876.0, 958.0], [875.0, 958.0], [875.0, 961.0], [874.0, 961.0], [874.0, 966.0], [873.0, 966.0], [873.0, 968.0], [872.0, 968.0], [872.0, 970.0], [871.0, 970.0], [871.0, 972.0], [870.0, 972.0], [870.0, 976.0], [869.0, 976.0], [869.0, 978.0], [868.0, 978.0], [868.0, 979.0], [867.0, 979.0], [867.0, 981.0], [866.0, 981.0], [866.0, 982.0], [865.0, 982.0], [865.0, 983.0], [864.0, 983.0], [864.0, 984.0], [862.0, 984.0], [862.0, 985.0], [861.0, 985.0], [861.0, 991.0], [860.0, 991.0], [860.0, 995.0], [859.0, 995.0], [859.0, 997.0], [858.0, 997.0], [858.0, 999.0], [857.0, 999.0], [857.0, 1000.0], [856.0, 1000.0], [856.0, 1002.0], [855.0, 1002.0], [855.0, 1003.0], [854.0, 1003.0], [854.0, 1005.0], [853.0, 1005.0], [853.0, 1006.0], [852.0, 1006.0], [852.0, 1008.0], [851.0, 1008.0], [851.0, 1010.0], [850.0, 1010.0], [850.0, 1011.0], [849.0, 1011.0], [849.0, 1012.0], [848.0, 1012.0], [848.0, 1014.0], [847.0, 1014.0], [847.0, 1016.0], [846.0, 1016.0], [846.0, 1019.0], [845.0, 1019.0], [845.0, 1024.0], [1024.0, 1024.0], [1024.0, 861.0], [1010.0, 861.0]]]}}]}